{"type":"FeatureCollection","features":[{"type":"Feature","geometry":{"type":"LineString","coordinates":[[12936419.474945456,600667.1745192857],[12936536.668431534,600456.0022972628],[12936542.490783297,600459.0627664935]]},"properties":{"__style":{"strokeDashstyle":"solid","strokeWidth":4,"strokeColor":"#0000FF","strokeOpacity":0.9,"enableSegmentLength":false,"enableTotalLength":false,"enableArrows":false,"enableAngle":false},"__featureType":"line","__resolution":0.07464553543474244}},{"type":"Feature","geometry":{"type":"Point","coordinates":[12936542.490783297,600459.0627664935]},"properties":{"__style":{"text":"DP0005","fontFamily":"Calibri","fontSize":14,"fontWeight":"normal","fontStyle":"normal","fontColor":"#0000FF"},"__featureType":"label","__resolution":0.03732276771737122}},{"type":"Feature","geometry":{"type":"LineString","coordinates":[[12936149.780621374,600813.4051232024],[12936157.916984737,600806.6870250131],[12936180.459936438,600795.0423214854],[12936216.028534072,600788.9213875796],[12936348.15113179,600814.7487405621],[12936366.215351366,600783.2483268867],[12936419.474945456,600667.1745192857],[12936426.34233016,600669.3392375353]]},"properties":{"__style":{"strokeDashstyle":"solid","strokeWidth":4,"strokeColor":"#0000FF","strokeOpacity":0.9,"enableSegmentLength":false,"enableTotalLength":false,"enableArrows":false,"enableAngle":false},"__featureType":"line","__resolution":0.07464553543474244}},{"type":"Feature","geometry":{"type":"Point","coordinates":[12936426.34233016,600669.3392375353]},"properties":{"__style":{"text":"DP0006","fontFamily":"Calibri","fontSize":14,"fontWeight":"normal","fontStyle":"normal","fontColor":"#0000FF"},"__featureType":"label","__resolution":0.07464553543474244}},{"type":"Feature","geometry":{"type":"Point","coordinates":[12936203.121435687,600791.1425461684]},"properties":{"__style":{"text":"FD1","fontFamily":"Calibri","fontSize":14,"fontWeight":"normal","fontStyle":"normal","fontColor":"#0000FF"},"__featureType":"label","__resolution":0.29858214173896974}},{"type":"Feature","geometry":{"type":"LineString","coordinates":[[12936245.028324587,599847.715831283],[12936241.893212099,599839.654113456],[12936175.981204309,599798.8230032953],[12936180.907809647,599790.537348862]]},"properties":{"__style":{"strokeDashstyle":"solid","strokeWidth":4,"strokeColor":"#0000FF","strokeOpacity":0.9,"enableSegmentLength":false,"enableTotalLength":false,"enableArrows":false,"enableAngle":false},"__featureType":"line","__resolution":0.07464553543474244}},{"type":"Feature","geometry":{"type":"Point","coordinates":[12936180.907809647,599790.537348862]},"properties":{"__style":{"text":"DP0016","fontFamily":"Calibri","fontSize":14,"fontWeight":"normal","fontStyle":"normal","fontColor":"#0000FF"},"__featureType":"label","__resolution":0.07464553543474244}},{"type":"Feature","geometry":{"type":"LineString","coordinates":[[12936245.028324587,599847.715831283],[12936247.846193548,599843.7969406728]]},"properties":{"__style":{"strokeDashstyle":"solid","strokeWidth":4,"strokeColor":"#0000FF","strokeOpacity":0.9,"enableSegmentLength":false,"enableTotalLength":false,"enableArrows":false,"enableAngle":false},"__featureType":"line","__resolution":0.03732276771737122}},{"type":"Feature","geometry":{"type":"LineString","coordinates":[[12936492.627565624,600016.1161592238],[12936486.13340404,600010.9656150008],[12936413.801880207,599960.7291719312],[12936317.43449396,599893.5481900399],[12936245.028324587,599847.715831283]]},"properties":{"__style":{"strokeDashstyle":"solid","strokeWidth":4,"strokeColor":"#0000FF","strokeOpacity":0.9,"enableSegmentLength":false,"enableTotalLength":false,"enableArrows":false,"enableAngle":false},"__featureType":"line","__resolution":0.07464553543474244}},{"type":"Feature","geometry":{"type":"LineString","coordinates":[[12936536.668431534,600456.0022972628],[12936667.410086846,600214.5986379448],[12936672.187401112,600201.75960585],[12936670.694490405,600184.4418325172],[12936664.424265428,600162.6453452822],[12936492.627565624,600016.1161592238],[12936499.793537024,600009.9205797828]]},"properties":{"__style":{"strokeDashstyle":"solid","strokeWidth":4,"strokeColor":"#0000FF","strokeOpacity":0.9,"enableSegmentLength":false,"enableTotalLength":false,"enableArrows":false,"enableAngle":false},"__featureType":"line","__resolution":0.5971642834779395}},{"type":"Feature","geometry":{"type":"Point","coordinates":[12936499.793537024,600009.9205797828]},"properties":{"__style":{"text":"DP0004","fontFamily":"Calibri","fontSize":14,"fontWeight":"normal","fontStyle":"normal","fontColor":"#0000FF"},"__featureType":"label","__resolution":0.03732276771737122}},{"type":"Feature","geometry":{"type":"Point","coordinates":[12936247.846193548,599843.7969406728]},"properties":{"__style":{"text":"DP0003","fontFamily":"Calibri","fontSize":14,"fontWeight":"normal","fontStyle":"normal","fontColor":"#0000FF"},"__featureType":"label","__resolution":0.03732276771737122}},{"type":"Feature","geometry":{"type":"Point","coordinates":[12936670.694490405,600184.4418325172]},"properties":{"__style":{"text":"FD1 C046M","fontFamily":"Calibri","fontSize":14,"fontWeight":"normal","fontStyle":"normal","fontColor":"#0000FF"},"__featureType":"label","__resolution":1.194328566955879}},{"type":"Feature","geometry":{"type":"LineString","coordinates":[[12936245.028324587,599847.715831283],[12936039.41719723,599717.7579495352],[12935982.686590305,599647.1432775698],[12935952.417825682,599610.3430286006],[12935958.389468517,599605.0431933067]]},"properties":{"__style":{"strokeDashstyle":"solid","strokeWidth":4,"strokeColor":"#0000FF","strokeOpacity":0.9,"enableSegmentLength":false,"enableTotalLength":false,"enableArrows":false,"enableAngle":false},"__featureType":"line","__resolution":0.14929107086948487}},{"type":"Feature","geometry":{"type":"Point","coordinates":[12935958.389468517,599605.0431933067]},"properties":{"__style":{"text":"DP0002","fontFamily":"Calibri","fontSize":14,"fontWeight":"normal","fontStyle":"normal","fontColor":"#0000FF"},"__featureType":"label","__resolution":0.03732276771737122}},{"type":"Feature","geometry":{"type":"LineString","coordinates":[[12936175.981204309,599798.8230032953],[12936161.649261506,599789.1937292241],[12936147.093382096,599791.209158681],[12936035.946179833,599719.9973201542],[12936019.076288825,599700.5148354057],[12936019.225579897,599687.0786390274],[12936044.978289621,599672.2988230113],[12936029.601309322,599647.2179231052],[12936033.109649487,599637.9618767113]]},"properties":{"__style":{"strokeDashstyle":"solid","strokeWidth":4,"strokeColor":"#0000FF","strokeOpacity":0.9,"enableSegmentLength":false,"enableTotalLength":false,"enableArrows":false,"enableAngle":false},"__featureType":"line","__resolution":0.07464553543474244}},{"type":"Feature","geometry":{"type":"Point","coordinates":[12936033.109649487,599637.9618767113]},"properties":{"__style":{"text":"DP0016A","fontFamily":"Calibri","fontSize":14,"fontWeight":"normal","fontStyle":"normal","fontColor":"#0000FF"},"__featureType":"label","__resolution":0.07464553543474244}},{"type":"Feature","geometry":{"type":"Point","coordinates":[12933997.60054372,599261.8230213777]},"properties":{"__style":{"text":"JT F14","fontFamily":"Calibri","fontSize":14,"fontWeight":"normal","fontStyle":"normal","fontColor":"#FF0000"},"__featureType":"label","__resolution":0.01866138385868561}}]}