{"type":"FeatureCollection","features":[{"type":"Feature","geometry":{"type":"LineString","coordinates":[[12935769.741541369,599368.342202721],[12935767.2782387,599366.0655138904],[12935761.493207427,599367.968975044],[12935732.773337668,599317.2100109482],[12935746.955989402,599294.2191814784],[12935753.226214377,599258.0907468839],[12935827.125294456,599219.7229416706],[12935864.448062176,599274.5127646795],[12935864.839951236,599280.0365331628]]},"properties":{"__style":{"strokeDashstyle":"solid","strokeWidth":4,"strokeColor":"#0000FF","strokeOpacity":0.9,"enableSegmentLength":false,"enableTotalLength":false,"enableArrows":false,"enableAngle":false},"__featureType":"line","__resolution":0.03732276771737122}},{"type":"Feature","geometry":{"type":"LineString","coordinates":[[12935952.417825682,599610.3430286006],[12935806.224544533,599428.5811498169],[12935764.273753619,599372.2984160992],[12935769.741541369,599368.342202721]]},"properties":{"__style":{"strokeDashstyle":"solid","strokeWidth":4,"strokeColor":"#0000FF","strokeOpacity":0.9,"enableSegmentLength":false,"enableTotalLength":false,"enableArrows":false,"enableAngle":false},"__featureType":"line","__resolution":0.07464553543474244}},{"type":"Feature","geometry":{"type":"Point","coordinates":[12935769.741541369,599368.342202721]},"properties":{"__style":{"text":"DP0001","fontFamily":"Calibri","fontSize":14,"fontWeight":"normal","fontStyle":"normal","fontColor":"#0000FF"},"__featureType":"label","__resolution":0.07464553543474244}},{"type":"Feature","geometry":{"type":"Point","coordinates":[12935864.839951236,599280.0365331628]},"properties":{"__style":{"text":"DP0001A","fontFamily":"Calibri","fontSize":14,"fontWeight":"normal","fontStyle":"normal","fontColor":"#0000FF"},"__featureType":"label","__resolution":0.07464553543474244}},{"type":"Feature","geometry":{"type":"Point","coordinates":[12935937.987081978,599592.401307426]},"properties":{"__style":{"text":"FD1 C046M","fontFamily":"Calibri","fontSize":14,"fontWeight":"normal","fontStyle":"normal","fontColor":"#0000FF"},"__featureType":"label","__resolution":0.29858214173896974}},{"type":"Feature","geometry":{"type":"Point","coordinates":[12935793.901320644,599236.9725603977]},"properties":{"__style":{"text":"FD1","fontFamily":"Calibri","fontSize":14,"fontWeight":"normal","fontStyle":"normal","fontColor":"#0000FF"},"__featureType":"label","__resolution":0.29858214173896974}},{"type":"Feature","geometry":{"type":"LineString","coordinates":[[12930500.158631016,595031.0633662854],[12930500.062987152,595030.932736456]]},"properties":{"__style":{"strokeDashstyle":"solid","strokeWidth":4,"strokeColor":"#FF0000","strokeOpacity":0.9,"enableSegmentLength":false,"enableTotalLength":false,"enableArrows":false,"enableAngle":false},"__featureType":"line","__resolution":0.004665345964671402}},{"type":"Feature","geometry":{"type":"Point","coordinates":[12930500.062987152,595030.932736456]},"properties":{"__style":{"text":"JT F14","fontFamily":"Calibri","fontSize":14,"fontWeight":"normal","fontStyle":"normal","fontColor":"#FF0000"},"__featureType":"label","__resolution":0.004665345964671402}},{"type":"Feature","geometry":{"type":"LineString","coordinates":[[12930500.158631016,595031.0633662854],[12930584.321476772,595141.6880497996],[12930624.779347867,595186.7739532022],[12930676.135476246,595273.5120630994],[12930720.922806622,595337.8565169221],[12930737.494106377,595373.0892050914],[12930752.572504532,595416.5329112704],[12930857.374836281,595546.117560785],[12930922.764325323,595630.914889039],[12930998.604189325,595728.5512448315],[12931027.417366002,595765.1275611811],[12931069.368156917,595819.1709294055],[12931126.248054918,595895.1600839086],[12931249.039960707,596044.0032730228],[12931267.850635637,596065.7997784817],[12931333.538706819,596138.0566545046],[12931418.03745293,596230.0199564382],[12931460.436117057,596273.9115312739],[12931518.659634698,596353.0357897227],[12931599.276812967,596446.1934270572],[12931656.903166326,596516.3602303659],[12931771.260126611,596649.8264431673],[12931899.053283276,596801.5061757267],[12931979.371897629,596897.9482075083],[12932055.510325547,596989.0157607386],[12932099.999064663,597041.8647998265],[12932142.09914665,597092.9223460639],[12932213.460278524,597177.1225100342],[12932259.143364435,597229.9715400101],[12932365.140024753,597349.7029879594],[12932460.387709744,597467.0457696628],[12932544.886455856,597565.8764585784],[12932589.972359257,597619.0240798079],[12932695.37185529,597741.7413400626],[12932816.297622696,597883.269275247],[12932866.75800465,597950.1516749965],[12932972.157500684,598077.3476673773],[12933025.902286196,598142.7371552791],[12933149.515292877,598295.3126308467],[12933171.311789226,598321.5878593198],[12933272.829717416,598438.3334767397],[12933319.707113666,598495.9598300953],[12933420.926459717,598613.6011939405],[12933480.045723781,598673.0190401465],[12933578.577830555,598805.8880886644],[12933683.380162304,598939.9514748611],[12933685.171655154,598950.7004319637],[12933709.356808634,598967.7196140428],[12933729.958976414,598930.3968463255],[12933997.60054372,599261.8230213777]]},"properties":{"__style":{"strokeDashstyle":"solid","strokeWidth":4,"strokeColor":"#FF0000","strokeOpacity":0.9,"enableSegmentLength":false,"enableTotalLength":false,"enableArrows":false,"enableAngle":false},"__featureType":"line","__resolution":0.07464553543474244}},{"type":"Feature","geometry":{"type":"LineString","coordinates":[[12930680.912790515,595535.2193126117],[12930695.244733319,595534.6221483282],[12930695.095442249,595522.380275961],[12930676.73264053,595489.8348270674],[12930674.64256554,595435.4928727148],[12930683.60002979,595365.9232291336],[12930717.787685018,595342.3352490483],[12930625.824385362,595199.6129852971],[12930598.653410463,595176.6221558271],[12930583.276439276,595143.9274158627],[12930581.169852318,595138.5978458148],[12930500.22160863,595031.0027166456]]},"properties":{"__style":{"strokeDashstyle":"solid","strokeWidth":4,"strokeColor":"#FF0000","strokeOpacity":0.9,"enableSegmentLength":false,"enableTotalLength":false,"enableArrows":false,"enableAngle":false},"__featureType":"line","__resolution":0.14929107086948487}},{"type":"Feature","geometry":{"type":"LineString","coordinates":[[12930500.22160863,595031.0027166456],[12930500.062987152,595030.932736456]]},"properties":{"__style":{"strokeDashstyle":"solid","strokeWidth":4,"strokeColor":"#FF0000","strokeOpacity":0.9,"enableSegmentLength":false,"enableTotalLength":false,"enableArrows":false,"enableAngle":false},"__featureType":"line","__resolution":0.004665345964671402}},{"type":"Feature","geometry":{"type":"LineString","coordinates":[[12930680.912790515,595535.2193126117],[12930673.48555974,595527.904050139]]},"properties":{"__style":{"strokeDashstyle":"solid","strokeWidth":4,"strokeColor":"#FF0000","strokeOpacity":0.9,"enableSegmentLength":false,"enableTotalLength":false,"enableArrows":false,"enableAngle":false},"__featureType":"line","__resolution":0.07464553543474244}},{"type":"Feature","geometry":{"type":"Point","coordinates":[12930673.48555974,595527.904050139]},"properties":{"__style":{"text":"TM NODE KGU","fontFamily":"Calibri","fontSize":14,"fontWeight":"normal","fontStyle":"normal","fontColor":"#FF0000"},"__featureType":"label","__resolution":0.07464553543474244}},{"type":"Feature","geometry":{"type":"LineString","coordinates":[[12935164.655498167,600651.6669087296],[12935165.625890128,600650.6405326173],[12935164.226286339,600649.8940778325],[12934925.257935334,600379.1173980429],[12934894.653265806,600338.3609356956],[12934570.542350948,599948.2633675135],[12934549.492309954,599920.1966370781],[12934497.688308366,599859.5844714171],[12934448.123672834,599797.4793859354],[12934411.995233685,599760.7537825014],[12934367.058621353,599705.6653773506],[12934250.462295003,599565.9289350169],[12934186.56571667,599490.6862352985],[12934170.59157209,599472.3234335816],[12934122.33323343,599416.5632186119],[12934106.284443311,599396.9314427925],[12934027.085530216,599300.4147654754],[12934011.63390438,599280.1858253727],[12933997.60054372,599261.8230213777]]},"properties":{"__style":{"strokeDashstyle":"solid","strokeWidth":4,"strokeColor":"#FF0000","strokeOpacity":0.9,"enableSegmentLength":false,"enableTotalLength":false,"enableArrows":false,"enableAngle":false},"__featureType":"line","__resolution":0.01866138385868561}}]}