{"type":"FeatureCollection","features":[{"type":"Feature","geometry":{"type":"Point","coordinates":[12935162.69,600657.66]},"properties":{"__style":{"text":"FD1 C029M"}}},{"type":"Feature","geometry":{"type":"LineString","coordinates":[[12936056.1,600886.33],[12936060.65,600892.6],[12935663.37,601234.89],[12935659.49,601246.8],[12936230.81,601931.6],[12936313.81,602025.05],[12936460.27,602190.02],[12936468.14,602190.54]]},"properties":{"__style":{"strokeColor":"#FF0000"}}},{"type":"Feature","geometry":{"type":"Point","coordinates":[12935446.19,600412.0]},"properties":{"__style":{"text":"DP0001"}}},{"type":"Feature","geometry":{"type":"LineString","coordinates":[[12935114.15,600572.52],[12935108.4,600570.28],[12935105.19,600572.15],[12935022.19,600473.54],[12934988.41,600433.46],[12934992.29,600429.73],[12934992.14,600424.35]]},"properties":{"__style":{"strokeColor":"#0000FF"}}},{"type":"Feature","geometry":{"type":"Point","coordinates":[12935114.15,600572.52]},"properties":{"__style":{"text":"DP0016"}}},{"type":"Feature","geometry":{"type":"Point","coordinates":[12934615.77,600031.7]},"properties":{"__style":{"text":"FD2 C029M"}}},{"type":"Feature","geometry":{"type":"Point","coordinates":[12942197.64,609044.87]},"properties":{"__style":{"text":"JT F14"}}},{"type":"Feature","geometry":{"type":"Point","coordinates":[12942699.18,609732.73]},"properties":{"__style":{"text":"JT F14"}}},{"type":"Feature","geometry":{"type":"Point","coordinates":[12942207.12,608978.88]},"properties":{"__style":{"text":"JT F14"}}},{"type":"Feature","geometry":{"type":"Point","coordinates":[12940175.79,606632.25]},"properties":{"__style":{"text":"FDC KGU C041M"}}},{"type":"Feature","geometry":{"type":"LineString","coordinates":[[12936468.14,602190.54],[12936488.04,602213.31],[12936560.44,602303.18],[12936608.22,602358.27],[12936622.55,602375.14],[12936640.16,602395.14],[12936693.61,602456.8],[12936705.7,602481.43],[12936761.69,602546.53],[12936824.24,602618.48],[12936835.14,602631.17],[12936980.1,602806.29],[12937084.31,602929.31],[12937166.27,603026.94],[12937253.15,603126.97],[12937343.4,603234.16],[12937384.31,603271.18],[12937472.09,603385.54],[12937625.56,603566.78],[12937754.06,603716.52],[12937769.81,603728.24]]},"properties":{"__style":{"strokeColor":"#FF0000"}}},{"type":"Feature","geometry":{"type":"LineString","coordinates":[[12938369.91,604308.42],[12938383.75,604309.13],[12938388.08,604309.43]]},"properties":{"__style":{"strokeColor":"#FF0000"}}},{"type":"Feature","geometry":{"type":"Point","coordinates":[12934610.96,599977.91]},"properties":{"__style":{"text":"FD2 C029M"}}},{"type":"Feature","geometry":{"type":"LineString","coordinates":[[12934808.81,599864.66],[12934753.54,599732.16]]},"properties":{"__style":{"strokeColor":"#0000FF"}}},{"type":"Feature","geometry":{"type":"LineString","coordinates":[[12934808.81,599864.66],[12934862.37,599843.09],[12934874.46,599751.87],[12934867.3,599751.42]]},"properties":{"__style":{"strokeColor":"#0000FF"}}},{"type":"Feature","geometry":{"type":"LineString","coordinates":[[12934808.81,599864.66],[12934802.06,599863.76],[12934737.64,599899.22],[12934743.38,599909.67]]},"properties":{"__style":{"strokeColor":"#0000FF"}}},{"type":"Feature","geometry":{"type":"Point","coordinates":[12934667.54,599767.77]},"properties":{"__style":{"text":"DP0011"}}},{"type":"Feature","geometry":{"type":"LineString","coordinates":[[12934900.36,599673.49],[12934875.95,599623.48],[12934882.9,599621.91]]},"properties":{"__style":{"strokeColor":"#0000FF"}}},{"type":"Feature","geometry":{"type":"Point","coordinates":[12934867.3,599751.42]},"properties":{"__style":{"text":"DP0006"}}},{"type":"Feature","geometry":{"type":"LineString","coordinates":[[12934900.36,599673.49],[12934905.1,599673.57],[12934925.86,599622.66],[12934930.18,599618.03],[12934948.55,599630.27],[12934972.88,599660.88],[12934977.06,599676.55],[12934971.09,599677.9]]},"properties":{"__style":{"strokeColor":"#0000FF"}}},{"type":"Feature","geometry":{"type":"Point","coordinates":[12934971.09,599677.9]},"properties":{"__style":{"text":"DP0008"}}},{"type":"Feature","geometry":{"type":"LineString","coordinates":[[12934568.0,599916.02],[12934563.08,599913.03],[12934551.0,599921.43],[12934631.55,600020.04],[12934608.93,600036.76],[12934423.3,599812.56],[12934335.6,599707.01],[12934298.05,599660.88],[12934188.92,599527.64],[12934150.92,599484.19],[12934146.15,599488.6],[12934139.35,599488.15]]},"properties":{"__style":{"strokeColor":"#0000FF"}}},{"type":"Feature","geometry":{"type":"Point","coordinates":[12930500.06,595030.93]},"properties":{"__style":{"text":"JT F14"}}},{"type":"Feature","geometry":{"type":"LineString","coordinates":[[12930500.16,595031.06],[12930584.32,595141.69],[12930624.78,595186.77],[12930676.14,595273.51],[12930720.92,595337.86],[12930737.49,595373.09],[12930752.57,595416.53],[12930857.37,595546.12],[12930922.76,595630.91],[12930998.6,595728.55],[12931027.42,595765.13],[12931069.37,595819.17],[12931126.25,595895.16],[12931249.04,596044.0],[12931267.85,596065.8],[12931333.54,596138.06],[12931418.04,596230.02],[12931460.44,596273.91],[12931518.66,596353.04],[12931599.28,596446.19],[12931656.9,596516.36],[12931771.26,596649.83],[12931899.05,596801.51],[12931979.37,596897.95],[12932055.51,596989.02],[12932100.0,597041.86],[12932142.1,597092.92],[12932213.46,597177.12],[12932259.14,597229.97],[12932365.14,597349.7],[12932460.39,597467.05],[12932544.89,597565.88],[12932589.97,597619.02],[12932695.37,597741.74],[12932816.3,597883.27],[12932866.76,597950.15],[12932972.16,598077.35],[12933025.9,598142.74],[12933149.52,598295.31],[12933171.31,598321.59],[12933272.83,598438.33],[12933319.71,598495.96],[12933420.93,598613.6],[12933480.05,598673.02],[12933578.58,598805.89],[12933683.38,598939.95],[12933685.17,598950.7],[12933709.36,598967.72],[12933729.96,598930.4],[12933997.6,599261.82]]},"properties":{"__style":{"strokeColor":"#FF0000"}}}]}