{"type":"FeatureCollection","features":[{"type":"Feature","geometry":{"type":"Point","coordinates":[12936066.638370084,600789.8455125487]},"properties":{"__style":{"text":"FD1 C046M","fontFamily":"Calibri","fontSize":14,"fontWeight":"normal","fontStyle":"normal","fontColor":"#0000FF"},"__featureType":"label","__resolution":0.29858214173896974}},{"type":"Feature","geometry":{"type":"Point","coordinates":[12935873.683655767,600701.1446753213]},"properties":{"__style":{"text":"FD1 C046M","fontFamily":"Calibri","fontSize":14,"fontWeight":"normal","fontStyle":"normal","fontColor":"#0000FF"},"__featureType":"label","__resolution":0.5971642834779395}},{"type":"Feature","geometry":{"type":"Point","coordinates":[12935844.005064027,600684.6292311009]},"properties":{"__style":{"text":"FD1 C046M","fontFamily":"Calibri","fontSize":14,"fontWeight":"normal","fontStyle":"normal","fontColor":"#0000FF"},"__featureType":"label","__resolution":0.5971642834779395}},{"type":"Feature","geometry":{"type":"LineString","coordinates":[[12942197.636547832,609044.866897733],[12942186.141139932,609056.36231019]]},"properties":{"__style":{"strokeDashstyle":"solid","strokeWidth":4,"strokeColor":"#FF0000","strokeOpacity":0.9,"enableSegmentLength":false,"enableTotalLength":false,"enableArrows":false,"enableAngle":false},"__featureType":"line","__resolution":0.07464553543474244}},{"type":"Feature","geometry":{"type":"Point","coordinates":[12942197.636547832,609044.866897733]},"properties":{"__style":{"text":"JT F14","fontFamily":"Calibri","fontSize":14,"fontWeight":"normal","fontStyle":"normal","fontColor":"#FF0000"},"__featureType":"label","__resolution":0.07464553543474244}},{"type":"Feature","geometry":{"type":"Point","coordinates":[12942186.141139932,609056.36231019]},"properties":{"__style":{"text":"FDC KGU C042M","fontFamily":"Calibri","fontSize":14,"fontWeight":"normal","fontStyle":"normal","fontColor":"#FF0000"},"__featureType":"label","__resolution":0.07464553543474244}},{"type":"Feature","geometry":{"type":"Point","coordinates":[12942705.599416465,609729.0678755279]},"properties":{"__style":{"text":"FDC KGU C044M","fontFamily":"Calibri","fontSize":14,"fontWeight":"normal","fontStyle":"normal","fontColor":"#FF0000"},"__featureType":"label","__resolution":0.07464553543474244}},{"type":"Feature","geometry":{"type":"Point","coordinates":[12942699.179904973,609732.7255067643]},"properties":{"__style":{"text":"JT F14","fontFamily":"Calibri","fontSize":14,"fontWeight":"normal","fontStyle":"normal","fontColor":"#FF0000"},"__featureType":"label","__resolution":0.07464553543474244}},{"type":"Feature","geometry":{"type":"Point","coordinates":[12940199.08847047,606608.7264309985]},"properties":{"__style":{"text":"JT F14","fontFamily":"Calibri","fontSize":14,"fontWeight":"normal","fontStyle":"normal","fontColor":"#FF0000"},"__featureType":"label","__resolution":0.07464558028268643}},{"type":"Feature","geometry":{"type":"LineString","coordinates":[[12940199.08847047,606608.7264309985],[12940205.235238777,606602.7635558941],[12940217.626397658,606618.7377027551],[12940257.039240368,606662.7785663836],[12940316.606377644,606729.9595516919],[12940361.542999087,606781.3156812099],[12940435.143497026,606868.0537933852],[12940495.904953757,606940.1613794761],[12940554.874926753,607010.1788882968],[12940626.236058628,607095.5733853901],[12940683.862411985,607160.2164185072],[12940710.585513668,607190.821088605],[12940752.984177796,607244.1179986274],[12940801.503775828,607301.2964810483],[12940909.590511138,607429.0896377126],[12940986.773994777,607514.9320034627],[12941105.46039612,607654.3698636547],[12941147.11260489,607702.2922974037],[12941177.71727442,607741.2572669006],[12941254.751466988,607840.5358290289],[12941269.08340979,607860.3915368986],[12941357.015850535,607961.9094696457],[12941456.81696786,608073.2806085144],[12941475.926188482,608104.3331512553],[12941564.306502437,608214.2113794152],[12941594.16471661,608247.652570178],[12941658.807750296,608319.3122921683],[12941775.2548038,608457.5558249325],[12941848.705992442,608545.6375556065],[12942033.229756033,608766.2897549346],[12942080.405734431,608822.7217842792],[12942133.851937803,608881.24388406],[12942202.4138621,608972.9832471095],[12942207.116530832,608978.8802444089]]},"properties":{"__style":{"strokeDashstyle":"solid","strokeWidth":4,"strokeColor":"#FF0000","strokeOpacity":0.9,"enableSegmentLength":false,"enableTotalLength":false,"enableArrows":false,"enableAngle":false},"__featureType":"line","__resolution":0.14929107086948487}},{"type":"Feature","geometry":{"type":"LineString","coordinates":[[12940199.08847047,606608.7264309985],[12940202.659967802,606614.0350340228],[12940177.056549149,606629.9345330703],[12940175.787575046,606632.2485469468]]},"properties":{"__style":{"strokeDashstyle":"solid","strokeWidth":4,"strokeColor":"#FF0000","strokeOpacity":0.9,"enableSegmentLength":false,"enableTotalLength":false,"enableArrows":false,"enableAngle":false},"__featureType":"line","__resolution":0.07464553543474244}},{"type":"Feature","geometry":{"type":"LineString","coordinates":[[12942207.116530832,608978.8802444089],[12942273.065861387,608934.9886695731],[12942299.341089861,608919.4623982026],[12942321.286877278,608900.3531411313],[12942344.427011488,608885.7226161861],[12942373.090878868,608876.0186965797],[12942460.72473747,608862.1346269888],[12942494.763101626,608851.6842520279],[12942521.784785455,608840.6367127835],[12942559.406135313,608822.7217842792],[12942616.733906528,608789.877748688],[12942648.532904623,608774.6500549032],[12942676.898208087,608757.0337130966],[12942704.517056203,608734.789341259],[12942725.417806124,608695.973660555],[12942698.246831227,608686.2697455045],[12942700.934070501,608661.3381366692],[12942701.083361572,608628.0462233094],[12942693.170934815,608598.4865958332],[12942664.357758136,608553.2514013599],[12942640.023313586,608518.6158717792],[12942623.75058686,608498.3122850019],[12942604.64132979,608470.9920213107],[12942592.69804412,608439.1930209375],[12942590.010804843,608407.8418983329],[12942593.444508586,608372.6092033297],[12942613.748094225,608283.034560808],[12942611.807301192,608232.1263079195],[12942602.999128012,608173.454917068],[12942611.807301193,608145.2389046736],[12942637.933238596,608128.2197225945],[12942671.673020612,608116.4257279958],[12942703.91989192,608108.3640101687],[12942736.46534537,608112.5441601531],[12942791.10589553,608123.5916971194],[12942841.118386049,608133.4449100748],[12942879.934064474,608132.3998703007],[12942946.81646422,608121.6509154761],[12943016.479410166,608108.4013323671],[12943087.728578297,608083.6936595686],[12943097.189895354,608080.4465787773],[12943144.888392497,608049.8419103879],[12943160.638600474,608039.0183077499],[12943201.171126215,607998.0379087961],[12943246.107738549,607942.7255670391],[12943271.860448275,607917.2714394558],[12943282.907987518,607884.6513404709],[12943236.58111201,607754.02197179],[12943222.91084116,607719.2860376625],[12943214.196781259,607691.8419224428],[12943197.47617221,607651.3840422372],[12943177.471168717,607577.4849621569],[12943171.648816952,607548.0746211956],[12943158.511211826,607514.1855481083],[12943134.923213517,607486.5666999974],[12943109.54373147,607469.9953911309],[12943079.237644084,607448.4974769256],[12943104.766417202,607409.8310895704],[12943159.70553128,607311.896137968],[12943185.234304398,607325.4816345292],[12943213.898190005,607336.6784648444],[12943240.770582763,607357.579214766],[12943248.08584524,607358.9228344039],[12943248.384445604,607325.0337613166],[12943289.140889723,607259.4949812049],[12943282.721373675,607220.6793005009],[12943254.505361283,607145.7351840633],[12943218.974086417,607079.5992408071],[12943171.64881695,607027.0487793051],[12943149.852320604,606992.4132554193],[12943133.430302808,606949.8653002216],[12943122.233472493,606917.6184289138],[12943106.110036843,606885.222266535],[12943097.003281519,606853.7218505816],[12943092.82313153,606817.4441203603],[12943082.52204764,606775.3440383751],[12943084.164258532,606764.1471989478],[12943043.706369217,606762.0571330677]]},"properties":{"__style":{"strokeDashstyle":"solid","strokeWidth":4,"strokeColor":"#FF0000","strokeOpacity":0.9,"enableSegmentLength":false,"enableTotalLength":false,"enableArrows":false,"enableAngle":false},"__featureType":"line","__resolution":0.29858214173896974}},{"type":"Feature","geometry":{"type":"Point","coordinates":[12943043.706369217,606762.0571330677]},"properties":{"__style":{"text":"FDC KGU C043M","fontFamily":"Calibri","fontSize":14,"fontWeight":"normal","fontStyle":"normal","fontColor":"#FF0000"},"__featureType":"label","__resolution":0.14929107086948487,"__rotation":-0.938047491831778}},{"type":"Feature","geometry":{"type":"Point","coordinates":[12942207.116530832,608978.8802444089]},"properties":{"__style":{"text":"JT F14","fontFamily":"Calibri","fontSize":14,"fontWeight":"normal","fontStyle":"normal","fontColor":"#FF0000"},"__featureType":"label","__resolution":0.07464553543474244}},{"type":"Feature","geometry":{"type":"LineString","coordinates":[[12942207.116530832,608978.8802444089],[12942181.81169432,608998.661311299],[12942195.39718177,609017.8452139057],[12942208.086922793,609033.9686484205],[12942197.636547832,609044.866897733]]},"properties":{"__style":{"strokeDashstyle":"solid","strokeWidth":4,"strokeColor":"#FF0000","strokeOpacity":0.9,"enableSegmentLength":false,"enableTotalLength":false,"enableArrows":false,"enableAngle":false},"__featureType":"line","__resolution":0.07464553543474244}},{"type":"Feature","geometry":{"type":"LineString","coordinates":[[12942197.636547832,609044.866897733],[12942237.42261822,609090.7739020254],[12942258.323368141,609114.8097638659],[12942283.777495721,609142.20467594],[12942302.886752794,609162.8068437199],[12942319.159479517,609180.3485445471],[12942332.744966967,609194.8297784214],[12942345.285416922,609207.8927471224],[12942361.156923892,609224.2961035343],[12942384.02644981,609247.9027541156],[12942399.552721182,609264.1008350202],[12942434.710768374,609299.482817962],[12942476.13904054,609359.0499540999],[12942492.635703871,609384.8773116383],[12942509.43094934,609409.2864017254],[12942527.943042127,609434.7405287392],[12942551.531035885,609468.1070836481],[12942567.729117073,609503.638358515],[12942689.177398669,609737.8760487093],[12942699.179904973,609732.7255067643],[12942705.599416465,609729.0678755279]]},"properties":{"__style":{"strokeDashstyle":"solid","strokeWidth":4,"strokeColor":"#FF0000","strokeOpacity":0.9,"enableSegmentLength":false,"enableTotalLength":false,"enableArrows":false,"enableAngle":false},"__featureType":"line","__resolution":0.07464553543474244}},{"type":"Feature","geometry":{"type":"Point","coordinates":[12936468.143830003,602190.5406064378]},"properties":{"__style":{"text":"JT F14","fontFamily":"Calibri","fontSize":14,"fontWeight":"normal","fontStyle":"normal","fontColor":"#FF0000"},"__featureType":"label","__resolution":0.07464553543474244}},{"type":"Feature","geometry":{"type":"Point","coordinates":[12938383.753544478,604309.1301931466]},"properties":{"__style":{"text":"JT F14","fontFamily":"Calibri","fontSize":14,"fontWeight":"normal","fontStyle":"normal","fontColor":"#FF0000"},"__featureType":"label","__resolution":0.03732276771737122}}]}