{"type":"FeatureCollection","features":[{"type":"Feature","geometry":{"type":"Point","coordinates":[12937769.812676914,603728.2386363934]},"properties":{"__style":{"text":"JT F14","fontFamily":"Calibri","fontSize":14,"fontWeight":"normal","fontStyle":"normal","fontColor":"#FF0000"},"__featureType":"label","__resolution":0.07464553543474244}},{"type":"Feature","geometry":{"type":"LineString","coordinates":[[12938383.753544478,604309.1301931466],[12938388.082985533,604309.4287752884],[12938388.549520131,604314.0567984853],[12938388.698811203,604329.8070061774],[12938389.10936165,604348.9162635334],[12938398.962572327,604412.8128407265],[12938402.84414017,604456.1072524176],[12938408.666491933,604482.5317719615],[12938403.590595525,604486.1147576624],[12938170.64054537,604211.2698961917],[12938155.076946674,604193.0190622085],[12938137.98311906,604172.2676039271],[12938109.132619616,604138.0426247913],[12938087.149509432,604111.9166885281],[12938072.668275556,604094.5616015395],[12938059.082788108,604078.4754886533],[12938031.967797363,604046.452553952],[12938011.067047441,604021.894172794],[12937983.896072542,603989.8712380922],[12937946.797241429,603945.3078534377],[12937936.570803076,603932.6181124138],[12937917.83477368,603908.3583111195],[12937914.027851373,603903.2077714525],[12937862.149204247,603843.4913431047],[12937836.919013267,603810.5726619781],[12937793.326020576,603758.6193693154],[12937769.812676914,603728.2386363934]]},"properties":{"__style":{"strokeDashstyle":"solid","strokeWidth":4,"strokeColor":"#FF0000","strokeOpacity":0.9,"enableSegmentLength":false,"enableTotalLength":false,"enableArrows":false,"enableAngle":false},"__featureType":"line","__resolution":0.07464553543474244}},{"type":"Feature","geometry":{"type":"Point","coordinates":[12938369.906797655,604308.42106056]},"properties":{"__style":{"text":"FDC KGU C045M","fontFamily":"Calibri","fontSize":14,"fontWeight":"normal","fontStyle":"normal","fontColor":"#FF0000"},"__featureType":"label","__resolution":0.03732276771737122}},{"type":"Feature","geometry":{"type":"LineString","coordinates":[[12938369.906797655,604308.42106056],[12938383.753544478,604309.1301931466],[12938388.082985533,604309.4287752884]]},"properties":{"__style":{"strokeDashstyle":"solid","strokeWidth":4,"strokeColor":"#FF0000","strokeOpacity":0.9,"enableSegmentLength":false,"enableTotalLength":false,"enableArrows":false,"enableAngle":false},"__featureType":"line","__resolution":0.03732276771737122}},{"type":"Feature","geometry":{"type":"LineString","coordinates":[[12938383.753544478,604309.1301931466],[12938384.537322605,604311.0709764985],[12938387.149916345,604311.1082998357],[12938386.664720362,604341.7876148993],[12938386.067556078,604347.8339032695],[12938388.941409193,604365.3756039543],[12938391.815262308,604383.4771464396],[12938394.763763236,604409.5657610742],[12938398.608006032,604441.6260179738],[12938402.079023432,604467.826601481],[12938406.520432787,604490.8547491626],[12938426.413467983,604513.9202194696],[12938445.970598264,604537.5082086669],[12938466.423474975,604562.3651718243],[12938486.61509231,604587.0728441956],[12938508.18765205,604613.3480725263],[12938530.376037458,604640.7056569918],[12938553.590798976,604663.3979020419],[12938576.133750677,604691.3899795385],[12938661.232743604,604794.4860983827],[12938747.724179467,604895.8386057001],[12938885.634922566,605059.0131702669],[12939047.026158554,605248.3432205926],[12939196.825758815,605426.9732994718],[12939248.839508902,605484.931478143],[12939281.533866102,605525.9480353564],[12939327.00874475,605583.6089925985],[12939546.655380847,605839.8138599329],[12939584.996945199,605883.2081931143],[12939655.141202461,605967.0246361159],[12939707.74939541,606029.4411362233],[12939770.165913658,606101.6659434905],[12939798.40193128,606133.4686364023],[12939843.5795885,606189.9407079282],[12939884.001702854,606236.9016937233],[12940018.048567371,606391.7540582756],[12940171.618896928,606574.6880486676],[12940181.621404685,606582.9737069401],[12940190.354937578,606599.0225078398],[12940199.08847047,606608.7264309985]]},"properties":{"__style":{"strokeDashstyle":"solid","strokeWidth":4,"strokeColor":"#FF0000","strokeOpacity":0.9,"enableSegmentLength":false,"enableTotalLength":false,"enableArrows":false,"enableAngle":false},"__featureType":"line","__resolution":0.03732276771737122}},{"type":"Feature","geometry":{"type":"Point","coordinates":[12940175.787575046,606632.2485469468]},"properties":{"__style":{"text":"FDC KGU C041M","fontFamily":"Calibri","fontSize":14,"fontWeight":"normal","fontStyle":"normal","fontColor":"#FF0000"},"__featureType":"label","__resolution":0.07464553543474244}},{"type":"Feature","geometry":{"type":"LineString","coordinates":[[12936050.959263148,600896.4109586057],[12936029.750604948,600898.7996157396],[12935832.275836403,601069.4393097433],[12935644.206409875,601220.6711645343],[12935510.441610377,601061.6015239668],[12935489.690156082,601037.1177929001],[12935500.513754163,601027.7124554353]]},"properties":{"__style":{"strokeDashstyle":"solid","strokeWidth":4,"strokeColor":"#0000FF","strokeOpacity":0.9,"enableSegmentLength":false,"enableTotalLength":false,"enableArrows":false,"enableAngle":false},"__featureType":"line","__resolution":0.07464553543474244}},{"type":"Feature","geometry":{"type":"LineString","coordinates":[[12936050.959263148,600896.4109586057],[12936011.462444212,600931.9422334726],[12936008.551268332,600928.1353111655]]},"properties":{"__style":{"strokeDashstyle":"solid","strokeWidth":4,"strokeColor":"#0000FF","strokeOpacity":0.9,"enableSegmentLength":false,"enableTotalLength":false,"enableArrows":false,"enableAngle":false},"__featureType":"line","__resolution":0.07464553543474244}},{"type":"Feature","geometry":{"type":"LineString","coordinates":[[12936011.462444212,600931.9422334726],[12935934.876124857,600997.257076978],[12935896.657610714,601030.0264670339],[12935901.808152659,601037.1177906222],[12935895.09005447,601042.7162080578],[12935898.299812494,601046.5977759004]]},"properties":{"__style":{"strokeDashstyle":"solid","strokeWidth":4,"strokeColor":"#0000FF","strokeOpacity":0.9,"enableSegmentLength":false,"enableTotalLength":false,"enableArrows":false,"enableAngle":false},"__featureType":"line","__resolution":0.07464553543474244}},{"type":"Feature","geometry":{"type":"LineString","coordinates":[[12935895.09005447,601042.7162080578],[12935827.535844902,601099.2228772428],[12935811.113827104,601113.4055301144],[12935815.965786908,601122.2137032958]]},"properties":{"__style":{"strokeDashstyle":"solid","strokeWidth":4,"strokeColor":"#0000FF","strokeOpacity":0.9,"enableSegmentLength":false,"enableTotalLength":false,"enableArrows":false,"enableAngle":false},"__featureType":"line","__resolution":0.07464553543474244}},{"type":"Feature","geometry":{"type":"LineString","coordinates":[[12936055.503310118,600882.2283068731],[12936061.027084295,600886.7816845346],[12936111.114238575,600842.6661730927]]},"properties":{"__style":{"strokeDashstyle":"solid","strokeWidth":4,"strokeColor":"#0000FF","strokeOpacity":0.9,"enableSegmentLength":false,"enableTotalLength":false,"enableArrows":false,"enableAngle":false},"__featureType":"line","__resolution":0.07464553543474244}},{"type":"Feature","geometry":{"type":"Point","coordinates":[12936055.503310118,600882.2283068731]},"properties":{"__style":{"text":"FD1 C046M","fontFamily":"Calibri","fontSize":14,"fontWeight":"normal","fontStyle":"normal","fontColor":"#0000FF"},"__featureType":"label","__resolution":0.07464553543474244}},{"type":"Feature","geometry":{"type":"Point","coordinates":[12936056.100474404,600886.3338067661]},"properties":{"__style":{"text":"FDC KGU C046M","fontFamily":"Calibri","fontSize":14,"fontWeight":"normal","fontStyle":"normal","fontColor":"#FF0000"},"__featureType":"label","__resolution":0.14929107086948487}},{"type":"Feature","geometry":{"type":"LineString","coordinates":[[12936468.143830003,602190.5406064378],[12936488.036865197,602213.3074947455],[12936560.443034567,602303.1807194089],[12936608.216186358,602358.2691200037],[12936622.54812005,602375.139015568],[12936640.164466413,602395.1440190644],[12936693.610669784,602456.8012313335],[12936705.703246525,602481.434258027],[12936761.6873981,602546.5251649261],[12936824.240356792,602618.4834588072],[12936835.138604965,602631.17320097],[12936980.100234779,602806.291625961],[12937084.305402245,602929.3074694964],[12937166.266200159,603026.9438309841],[12937253.153603401,603126.9688478971],[12937343.400073966,603234.1598373511],[12937384.30580916,603271.1840229267],[12937472.088958832,603385.5409832126],[12937625.560179682,603566.7803386921],[12937754.062473493,603716.5192873302],[12937769.812676914,603728.2386363934]]},"properties":{"__style":{"strokeDashstyle":"solid","strokeWidth":4,"strokeColor":"#FF0000","strokeOpacity":0.9,"enableSegmentLength":false,"enableTotalLength":false,"enableArrows":false,"enableAngle":false},"__featureType":"line","__resolution":0.14929107086948487}},{"type":"Feature","geometry":{"type":"Point","coordinates":[12936111.114238575,600842.6661730927]},"properties":{"__style":{"text":"JT FD1 C046M","fontFamily":"Calibri","fontSize":14,"fontWeight":"normal","fontStyle":"normal","fontColor":"#0000FF"},"__featureType":"label","__resolution":0.07464553543474244}},{"type":"Feature","geometry":{"type":"LineString","coordinates":[[12936111.114238575,600842.6661730927],[12936127.088378599,600861.6261390932],[12936144.331497286,600900.2178809128],[12936170.532080222,600900.068589842],[12936171.278535577,600895.0673389678]]},"properties":{"__style":{"strokeDashstyle":"solid","strokeWidth":4,"strokeColor":"#0000FF","strokeOpacity":0.9,"enableSegmentLength":false,"enableTotalLength":false,"enableArrows":false,"enableAngle":false},"__featureType":"line","__resolution":0.07464553543474244}},{"type":"Feature","geometry":{"type":"LineString","coordinates":[[12936280.111730795,601958.3929912358],[12936281.977864625,601958.8408644483],[12936282.649674444,601961.2295215823],[12936273.841501262,601970.1869858345],[12936308.178447563,602009.8984106857],[12936363.34149825,602075.1386075167],[12936407.83023737,602128.0622932789],[12936439.470613701,602165.3663996124],[12936451.563190443,602179.5863741128],[12936486.040097121,602220.5481111131],[12936492.27299933,602215.3602469699],[12936497.572832344,602216.405284466]]},"properties":{"__style":{"strokeDashstyle":"solid","strokeWidth":4,"strokeColor":"#0000FF","strokeOpacity":0.9,"enableSegmentLength":false,"enableTotalLength":false,"enableArrows":false,"enableAngle":false},"__featureType":"line","__resolution":0.07464553543474244}},{"type":"Feature","geometry":{"type":"Point","coordinates":[12936497.572832344,602216.405284466]},"properties":{"__style":{"text":"DP0013A","fontFamily":"Calibri","fontSize":14,"fontWeight":"normal","fontStyle":"normal","fontColor":"#0000FF"},"__featureType":"label","__resolution":0.07464553543474244}}]}