{"type":"FeatureCollection","features":[{"type":"Feature","geometry":{"type":"Point","coordinates":[12935158.45,600657.99]},"properties":{"__style":{"text":"FDC KGU C029M"}}},{"type":"Feature","geometry":{"type":"Point","coordinates":[12936056.1,600886.33]},"properties":{"__style":{"text":"FDC KGU C046M"}}},{"type":"Feature","geometry":{"type":"Point","coordinates":[12935317.04,600523.93]},"properties":{"__style":{"text":"FD1 C029M"}}},{"type":"Feature","geometry":{"type":"Point","coordinates":[12934992.14,600424.35]},"properties":{"__style":{"text":"DP0016A"}}},{"type":"Feature","geometry":{"type":"Point","coordinates":[12934604.03,599981.87]},"properties":{"__style":{"text":"FD2 C029M"}}},{"type":"Feature","geometry":{"type":"Point","coordinates":[12934679.47,600063.22]},"properties":{"__style":{"text":"DP0015"}}},{"type":"Feature","geometry":{"type":"LineString","coordinates":[[12942197.64,609044.87],[12942237.42,609090.77],[12942258.32,609114.81],[12942283.78,609142.2],[12942302.89,609162.81],[12942319.16,609180.35],[12942332.74,609194.83],[12942345.29,609207.89],[12942361.16,609224.3],[12942384.03,609247.9],[12942399.55,609264.1],[12942434.71,609299.48],[12942476.14,609359.05],[12942492.64,609384.88],[12942509.43,609409.29],[12942527.94,609434.74],[12942551.53,609468.11],[12942567.73,609503.64],[12942689.18,609737.88],[12942699.18,609732.73],[12942705.6,609729.07]]},"properties":{"__style":{"strokeColor":"#FF0000"}}},{"type":"Feature","geometry":{"type":"LineString","coordinates":[[12942207.12,608978.88],[12942273.07,608934.99],[12942299.34,608919.46],[12942321.29,608900.35],[12942344.43,608885.72],[12942373.09,608876.02],[12942460.72,608862.13],[12942494.76,608851.68],[12942521.78,608840.64],[12942559.41,608822.72],[12942616.73,608789.88],[12942648.53,608774.65],[12942676.9,608757.03],[12942704.52,608734.79],[12942725.42,608695.97],[12942698.25,608686.27],[12942700.93,608661.34],[12942701.08,608628.05],[12942693.17,608598.49],[12942664.36,608553.25],[12942640.02,608518.62],[12942623.75,608498.31],[12942604.64,608470.99],[12942592.7,608439.19],[12942590.01,608407.84],[12942593.44,608372.61],[12942613.75,608283.03],[12942611.81,608232.13],[12942603.0,608173.45],[12942611.81,608145.24],[12942637.93,608128.22],[12942671.67,608116.43],[12942703.92,608108.36],[12942736.47,608112.54],[12942791.11,608123.59],[12942841.12,608133.44],[12942879.93,608132.4],[12942946.82,608121.65],[12943016.48,608108.4],[12943087.73,608083.69],[12943097.19,608080.45],[12943144.89,608049.84],[12943160.64,608039.02],[12943201.17,607998.04],[12943246.11,607942.73],[12943271.86,607917.27],[12943282.91,607884.65],[12943236.58,607754.02],[12943222.91,607719.29],[12943214.2,607691.84],[12943197.48,607651.38],[12943177.47,607577.48],[12943171.65,607548.07],[12943158.51,607514.19],[12943134.92,607486.57],[12943109.54,607470.0],[12943079.24,607448.5],[12943104.77,607409.83],[12943159.71,607311.9],[12943185.23,607325.48],[12943213.9,607336.68],[12943240.77,607357.58],[12943248.09,607358.92],[12943248.38,607325.03],[12943289.14,607259.49],[12943282.72,607220.68],[12943254.51,607145.74],[12943218.97,607079.6],[12943171.65,607027.05],[12943149.85,606992.41],[12943133.43,606949.87],[12943122.23,606917.62],[12943106.11,606885.22],[12943097.0,606853.72],[12943092.82,606817.44],[12943082.52,606775.34],[12943084.16,606764.15],[12943043.71,606762.06]]},"properties":{"__style":{"strokeColor":"#FF0000"}}},{"type":"Feature","geometry":{"type":"Point","coordinates":[12938383.75,604309.13]},"properties":{"__style":{"text":"JT F14"}}},{"type":"Feature","geometry":{"type":"LineString","coordinates":[[12940199.09,606608.73],[12940205.24,606602.76],[12940217.63,606618.74],[12940257.04,606662.78],[12940316.61,606729.96],[12940361.54,606781.32],[12940435.14,606868.05],[12940495.9,606940.16],[12940554.87,607010.18],[12940626.24,607095.57],[12940683.86,607160.22],[12940710.59,607190.82],[12940752.98,607244.12],[12940801.5,607301.3],[12940909.59,607429.09],[12940986.77,607514.93],[12941105.46,607654.37],[12941147.11,607702.29],[12941177.72,607741.26],[12941254.75,607840.54],[12941269.08,607860.39],[12941357.02,607961.91],[12941456.82,608073.28],[12941475.93,608104.33],[12941564.31,608214.21],[12941594.16,608247.65],[12941658.81,608319.31],[12941775.25,608457.56],[12941848.71,608545.64],[12942033.23,608766.29],[12942080.41,608822.72],[12942133.85,608881.24],[12942202.41,608972.98],[12942207.12,608978.88]]},"properties":{"__style":{"strokeColor":"#FF0000"}}},{"type":"Feature","geometry":{"type":"Point","coordinates":[12937769.81,603728.24]},"properties":{"__style":{"text":"JT F14"}}},{"type":"Feature","geometry":{"type":"LineString","coordinates":[[12934604.03,599981.87],[12934557.26,599923.03],[12934568.0,599916.02]]},"properties":{"__style":{"strokeColor":"#0000FF"}}},{"type":"Feature","geometry":{"type":"LineString","coordinates":[[12935159.22,600654.22],[12935165.26,600649.41],[12935087.18,600555.73],[12935065.39,600529.75],[12935050.49,600511.87],[12935038.48,600497.65],[12935025.71,600482.5],[12934953.55,600397.03],[12934902.79,600339.7],[12934881.89,600312.23],[12934769.32,600178.17],[12934657.36,600046.5],[12934604.03,599981.87]]},"properties":{"__style":{"strokeColor":"#0000FF"}}},{"type":"Feature","geometry":{"type":"Point","coordinates":[12934753.54,599732.16]},"properties":{"__style":{"text":"JT FD2 C029M"}}},{"type":"Feature","geometry":{"type":"Point","coordinates":[12934930.61,599834.24]},"properties":{"__style":{"text":"DP0007"}}},{"type":"Feature","geometry":{"type":"LineString","coordinates":[[12934753.54,599732.16],[12934761.22,599731.49],[12934768.02,599730.97]]},"properties":{"__style":{"strokeColor":"#0000FF"}}},{"type":"Feature","geometry":{"type":"Point","coordinates":[12934743.38,599909.67]},"properties":{"__style":{"text":"DP0013"}}},{"type":"Feature","geometry":{"type":"Point","coordinates":[12934900.36,599673.49]},"properties":{"__style":{"text":"JT FD2 C029M"}}},{"type":"Feature","geometry":{"type":"LineString","coordinates":[[12934737.64,599899.22],[12934691.58,599924.6],[12934651.42,599836.0],[12934642.76,599841.22]]},"properties":{"__style":{"strokeColor":"#0000FF"}}},{"type":"Feature","geometry":{"type":"Point","coordinates":[12934715.47,599918.09]},"properties":{"__style":{"text":"FD2 C029M"}}},{"type":"Feature","geometry":{"type":"Point","coordinates":[12934642.76,599841.22]},"properties":{"__style":{"text":"DP0012"}}},{"type":"Feature","geometry":{"type":"Point","coordinates":[12934217.79,599562.89]},"properties":{"__style":{"text":"FD2 C029M"}}},{"type":"Feature","geometry":{"type":"LineString","coordinates":[[12930500.16,595031.06],[12930500.06,595030.93]]},"properties":{"__style":{"strokeColor":"#FF0000"}}},{"type":"Feature","geometry":{"type":"Point","coordinates":[12930673.49,595527.9]},"properties":{"__style":{"text":"TM NODE KGU"}}}]}