{"type":"FeatureCollection","features":[{"type":"Feature","geometry":{"type":"Point","coordinates":[12935159.22,600654.22]},"properties":{"__style":{"text":"FD2 C029M"}}},{"type":"Feature","geometry":{"type":"LineString","coordinates":[[12935164.66,600651.67],[12935210.12,600702.03],[12935254.41,600751.97],[12935305.46,600816.17],[12935344.58,600862.52],[12935380.86,600905.22],[12935423.03,600952.47],[12935450.58,600983.37],[12935477.6,601014.05],[12935505.96,601048.61],[12935539.11,601089.52],[12935577.7,601134.38],[12935612.26,601174.91],[12935622.41,601186.71],[12935644.21,601212.46],[12935674.21,601246.57],[12935697.06,601272.25],[12935726.47,601306.89],[12935759.01,601346.37],[12935791.71,601386.83],[12935813.65,601413.11],[12935851.09,601459.09],[12935977.39,601605.99],[12936060.09,601704.52],[12936111.75,601767.52],[12936188.19,601861.28],[12936248.2,601929.65],[12936293.88,601986.39],[12936444.67,602166.43],[12936468.14,602190.54]]},"properties":{"__style":{"strokeColor":"#FF0000"}}},{"type":"Feature","geometry":{"type":"LineString","coordinates":[[12935445.0,600408.86],[12935446.19,600412.0]]},"properties":{"__style":{"strokeColor":"#FF0000"}}},{"type":"Feature","geometry":{"type":"Point","coordinates":[12934681.24,600085.44]},"properties":{"__style":{"text":"FD2 C029M"}}},{"type":"Feature","geometry":{"type":"Point","coordinates":[12935072.53,600549.83]},"properties":{"__style":{"text":"FD2 C029M"}}},{"type":"Feature","geometry":{"type":"Point","coordinates":[12934622.84,600016.65]},"properties":{"__style":{"text":"FD2 C029M"}}},{"type":"Feature","geometry":{"type":"LineString","coordinates":[[12942197.64,609044.87],[12942186.14,609056.36]]},"properties":{"__style":{"strokeColor":"#FF0000"}}},{"type":"Feature","geometry":{"type":"Point","coordinates":[12942705.6,609729.07]},"properties":{"__style":{"text":"FDC KGU C044M"}}},{"type":"Feature","geometry":{"type":"LineString","coordinates":[[12942207.12,608978.88],[12942181.81,608998.66],[12942195.4,609017.85],[12942208.09,609033.97],[12942197.64,609044.87]]},"properties":{"__style":{"strokeColor":"#FF0000"}}},{"type":"Feature","geometry":{"type":"LineString","coordinates":[[12940199.09,606608.73],[12940202.66,606614.04],[12940177.06,606629.93],[12940175.79,606632.25]]},"properties":{"__style":{"strokeColor":"#FF0000"}}},{"type":"Feature","geometry":{"type":"Point","coordinates":[12936468.14,602190.54]},"properties":{"__style":{"text":"JT F14"}}},{"type":"Feature","geometry":{"type":"Point","coordinates":[12938369.91,604308.42]},"properties":{"__style":{"text":"FDC KGU C045M"}}},{"type":"Feature","geometry":{"type":"Point","coordinates":[12934517.75,599926.62]},"properties":{"__style":{"text":"FD2 C029M"}}},{"type":"Feature","geometry":{"type":"Point","coordinates":[12934578.47,599955.05]},"properties":{"__style":{"text":"FD2 C029M"}}},{"type":"Feature","geometry":{"type":"Point","coordinates":[12934808.81,599864.66]},"properties":{"__style":{"text":"JT FD2 C029M"}}},{"type":"Feature","geometry":{"type":"LineString","coordinates":[[12934753.54,599732.16],[12934751.67,599712.01],[12934733.68,599677.45],[12934707.78,599644.38],[12934713.97,599638.11]]},"properties":{"__style":{"strokeColor":"#0000FF"}}},{"type":"Feature","geometry":{"type":"Point","coordinates":[12934713.97,599638.11]},"properties":{"__style":{"text":"DP0009"}}},{"type":"Feature","geometry":{"type":"LineString","coordinates":[[12934874.46,599751.87],[12934875.95,599741.94],[12934900.36,599673.49]]},"properties":{"__style":{"strokeColor":"#0000FF"}}},{"type":"Feature","geometry":{"type":"Point","coordinates":[12934882.9,599621.91]},"properties":{"__style":{"text":"DP0005"}}},{"type":"Feature","geometry":{"type":"LineString","coordinates":[[12934900.36,599673.49],[12934917.12,599630.87],[12934925.78,599612.06],[12934921.94,599608.78]]},"properties":{"__style":{"strokeColor":"#0000FF"}}},{"type":"Feature","geometry":{"type":"Point","coordinates":[12934921.94,599608.78]},"properties":{"__style":{"text":"DP0002"}}},{"type":"Feature","geometry":{"type":"LineString","coordinates":[[12935164.66,600651.67],[12935165.63,600650.64],[12935164.23,600649.89],[12934925.26,600379.12],[12934894.65,600338.36],[12934570.54,599948.26],[12934549.49,599920.2],[12934497.69,599859.58],[12934448.12,599797.48],[12934412.0,599760.75],[12934367.06,599705.67],[12934250.46,599565.93],[12934186.57,599490.69],[12934170.59,599472.32],[12934122.33,599416.56],[12934106.28,599396.93],[12934027.09,599300.41],[12934011.63,599280.19],[12933997.6,599261.82]]},"properties":{"__style":{"strokeColor":"#FF0000"}}},{"type":"Feature","geometry":{"type":"Point","coordinates":[12934139.35,599488.15]},"properties":{"__style":{"text":"DP0014A"}}},{"type":"Feature","geometry":{"type":"LineString","coordinates":[[12930680.91,595535.22],[12930695.24,595534.62],[12930695.1,595522.38],[12930676.73,595489.83],[12930674.64,595435.49],[12930683.6,595365.92],[12930717.79,595342.34],[12930625.82,595199.61],[12930598.65,595176.62],[12930583.28,595143.93],[12930581.17,595138.6],[12930500.22,595031.0]]},"properties":{"__style":{"strokeColor":"#FF0000"}}}]}