{"type":"FeatureCollection","features":[{"type":"Feature","geometry":{"type":"Point","coordinates":[12936052.676110463,600885.6246787354]},"properties":{"__style":{"text":"FD2 C046M","fontFamily":"Calibri","fontSize":14,"fontWeight":"normal","fontStyle":"normal","fontColor":"#0000FF"},"__featureType":"label","__resolution":0.01866138385868561}},{"type":"Feature","geometry":{"type":"LineString","coordinates":[[12936111.114238575,600842.6661730927],[12936120.295634877,600839.2324773236],[12936149.780621374,600813.4051232024],[12936144.92866157,600808.8517432628]]},"properties":{"__style":{"strokeDashstyle":"solid","strokeWidth":4,"strokeColor":"#0000FF","strokeOpacity":0.9,"enableSegmentLength":false,"enableTotalLength":false,"enableArrows":false,"enableAngle":false},"__featureType":"line","__resolution":0.07464553543474244}},{"type":"Feature","geometry":{"type":"Point","coordinates":[12936144.92866157,600808.8517432628]},"properties":{"__style":{"text":"DP0012","fontFamily":"Calibri","fontSize":14,"fontWeight":"normal","fontStyle":"normal","fontColor":"#0000FF"},"__featureType":"label","__resolution":0.03732276771737122}},{"type":"Feature","geometry":{"type":"Point","coordinates":[12936133.018177683,600874.8975941841]},"properties":{"__style":{"text":"FD1 C046M","fontFamily":"Calibri","fontSize":14,"fontWeight":"normal","fontStyle":"normal","fontColor":"#0000FF"},"__featureType":"label","__resolution":0.29858214173896974}},{"type":"Feature","geometry":{"type":"LineString","coordinates":[[12935164.655498167,600651.6669087296],[12935158.450588033,600657.9931138712]]},"properties":{"__style":{"strokeDashstyle":"solid","strokeWidth":4,"strokeColor":"#FF0000","strokeOpacity":0.9,"enableSegmentLength":false,"enableTotalLength":false,"enableArrows":false,"enableAngle":false},"__featureType":"line","__resolution":0.14929107086948487}},{"type":"Feature","geometry":{"type":"LineString","coordinates":[[12935164.655498167,600651.6669087296],[12935210.123959938,600702.0339837641],[12935254.407423833,600751.9718452615],[12935305.46497007,600816.1670080133],[12935344.579230638,600862.5218849488],[12935380.85696086,600905.2191306481],[12935423.031688381,600952.4697557172],[12935450.575890953,600983.3730073872],[12935477.597574785,601014.0523224509],[12935505.96287825,601048.6132047877],[12935539.10549598,601089.5189587753],[12935577.6972378,601134.3809244327],[12935612.258120704,601174.9134513127],[12935622.409913523,601186.7074453419],[12935644.206409872,601212.4601556363],[12935674.213919673,601246.573163052],[12935697.05544896,601272.2512292349],[12935726.465789923,601306.8867568224],[12935759.01124337,601346.3742450674],[12935791.705987893,601386.8321258425],[12935813.651775312,601413.1073537461],[12935851.086511333,601459.0890047128],[12935977.386757288,601605.9914138924],[12936060.094010549,601704.5235252223],[12936111.748721069,601767.5243548512],[12936188.185767578,601861.2791496351],[12936248.200759843,601929.6544555373],[12936293.88382753,601986.3850647457],[12936444.66780911,602166.4300962144],[12936468.143830003,602190.5406064378]]},"properties":{"__style":{"strokeDashstyle":"solid","strokeWidth":4,"strokeColor":"#FF0000","strokeOpacity":0.9,"enableSegmentLength":false,"enableTotalLength":false,"enableArrows":false,"enableAngle":false},"__featureType":"line","__resolution":0.03732276771737122}},{"type":"Feature","geometry":{"type":"Point","coordinates":[12935164.655498167,600651.6669087296]},"properties":{"__style":{"text":"JT F14","fontFamily":"Calibri","fontSize":14,"fontWeight":"normal","fontStyle":"normal","fontColor":"#FF0000"},"__featureType":"label","__resolution":0.01866138385868561}},{"type":"Feature","geometry":{"type":"Point","coordinates":[12935158.450588033,600657.9931138712]},"properties":{"__style":{"text":"FDC KGU C029M","fontFamily":"Calibri","fontSize":14,"fontWeight":"normal","fontStyle":"normal","fontColor":"#FF0000"},"__featureType":"label","__resolution":0.14929107086948487}},{"type":"Feature","geometry":{"type":"LineString","coordinates":[[12935489.690156082,601037.1177929001],[12935267.918265749,600771.1557501461],[12935246.420351543,600746.1494957755],[12935225.668892689,600720.9939480561],[12935230.446206957,600716.5152159301]]},"properties":{"__style":{"strokeDashstyle":"solid","strokeWidth":4,"strokeColor":"#0000FF","strokeOpacity":0.9,"enableSegmentLength":false,"enableTotalLength":false,"enableArrows":false,"enableAngle":false},"__featureType":"line","__resolution":0.07464553543474244}},{"type":"Feature","geometry":{"type":"Point","coordinates":[12935230.446206957,600716.5152159301]},"properties":{"__style":{"text":"DP0015","fontFamily":"Calibri","fontSize":14,"fontWeight":"normal","fontStyle":"normal","fontColor":"#0000FF"},"__featureType":"label","__resolution":0.07464553543474244}},{"type":"Feature","geometry":{"type":"Point","coordinates":[12935408.171433259,600939.3556914364]},"properties":{"__style":{"text":"FD2 C046M","fontFamily":"Calibri","fontSize":14,"fontWeight":"normal","fontStyle":"normal","fontColor":"#0000FF"},"__featureType":"label","__resolution":0.29858214173896974}},{"type":"Feature","geometry":{"type":"Point","coordinates":[12935890.949861953,601513.2084070623]},"properties":{"__style":{"text":"FD2","fontFamily":"Calibri","fontSize":14,"fontWeight":"normal","fontStyle":"normal","fontColor":"#0000FF"},"__featureType":"label","__resolution":0.29858214173896974}},{"type":"Feature","geometry":{"type":"Point","coordinates":[12936419.261219952,602141.5394588248]},"properties":{"__style":{"text":"FD2 C046M","fontFamily":"Calibri","fontSize":14,"fontWeight":"normal","fontStyle":"normal","fontColor":"#0000FF"},"__featureType":"label","__resolution":0.14929107086948487}},{"type":"Feature","geometry":{"type":"LineString","coordinates":[[12935950.141136853,600634.5544203006],[12935941.332963672,600633.0615095919],[12935934.0177012,600639.4810256393],[12935918.192847688,600624.999791765],[12935775.731843311,600868.7174626815],[12935776.702235272,600878.1974479597]]},"properties":{"__style":{"strokeDashstyle":"solid","strokeWidth":4,"strokeColor":"#0000FF","strokeOpacity":0.9,"enableSegmentLength":false,"enableTotalLength":false,"enableArrows":false,"enableAngle":false},"__featureType":"line","__resolution":0.14929107086948487}},{"type":"Feature","geometry":{"type":"LineString","coordinates":[[12936111.114238575,600842.6661730927],[12935943.423038663,600643.5118845528],[12935950.141136853,600634.5544203006]]},"properties":{"__style":{"strokeDashstyle":"solid","strokeWidth":4,"strokeColor":"#0000FF","strokeOpacity":0.9,"enableSegmentLength":false,"enableTotalLength":false,"enableArrows":false,"enableAngle":false},"__featureType":"line","__resolution":0.14929107086948487}},{"type":"Feature","geometry":{"type":"Point","coordinates":[12935950.141136853,600634.5544203006]},"properties":{"__style":{"text":"DP0007","fontFamily":"Calibri","fontSize":14,"fontWeight":"normal","fontStyle":"normal","fontColor":"#0000FF"},"__featureType":"label","__resolution":0.03732276771737122}},{"type":"Feature","geometry":{"type":"LineString","coordinates":[[12935776.702235272,600878.1974479597],[12935773.94035046,600867.8963640697],[12935866.276877793,600707.7816905621],[12935807.75477801,600646.9455791828],[12935805.216829807,600640.8992908126]]},"properties":{"__style":{"strokeDashstyle":"solid","strokeWidth":4,"strokeColor":"#0000FF","strokeOpacity":0.9,"enableSegmentLength":false,"enableTotalLength":false,"enableArrows":false,"enableAngle":false},"__featureType":"line","__resolution":0.07464553543474244}},{"type":"Feature","geometry":{"type":"Point","coordinates":[12935805.216829807,600640.8992908126]},"properties":{"__style":{"text":"DP0007B","fontFamily":"Calibri","fontSize":14,"fontWeight":"normal","fontStyle":"normal","fontColor":"#0000FF"},"__featureType":"label","__resolution":0.07464553543474244}}]}