{"type":"FeatureCollection","features":[{"type":"Feature","geometry":{"type":"LineString","coordinates":[[12935164.66,600651.67],[12935158.45,600657.99]]},"properties":{"__style":{"strokeColor":"#FF0000"}}},{"type":"Feature","geometry":{"type":"Point","coordinates":[12935164.66,600651.67]},"properties":{"__style":{"text":"JT F14"}}},{"type":"Feature","geometry":{"type":"LineString","coordinates":[[12935162.69,600657.66],[12935297.74,600541.25],[12935410.29,600440.29],[12935423.39,600428.31],[12935444.44,600407.71],[12935445.0,600408.86]]},"properties":{"__style":{"strokeColor":"#0000FF"}}},{"type":"Feature","geometry":{"type":"LineString","coordinates":[[12934668.72,600070.79],[12934692.01,600098.04],[12934710.0,600119.46],[12934727.88,600140.21],[12934746.16,600161.82],[12934761.43,600179.85],[12934773.3,600193.81],[12934789.94,600213.52],[12934809.92,600236.83],[12934817.05,600245.27],[12934842.95,600275.71],[12934866.93,600303.95],[12935100.49,600583.27],[12935114.15,600572.52]]},"properties":{"__style":{"strokeColor":"#0000FF"}}},{"type":"Feature","geometry":{"type":"Point","coordinates":[12935062.65,600521.61]},"properties":{"__style":{"text":"FD2 C029M"}}},{"type":"Feature","geometry":{"type":"LineString","coordinates":[[12934604.03,599981.87],[12934604.45,599995.03],[12934640.5,600037.43],[12934661.11,600061.72],[12934668.72,600070.79],[12934679.47,600063.22]]},"properties":{"__style":{"strokeColor":"#0000FF"}}},{"type":"Feature","geometry":{"type":"Point","coordinates":[12934608.17,599986.89]},"properties":{"__style":{"text":"FD2 C029M"}}},{"type":"Feature","geometry":{"type":"Point","coordinates":[12942186.14,609056.36]},"properties":{"__style":{"text":"FDC KGU C042M"}}},{"type":"Feature","geometry":{"type":"Point","coordinates":[12943043.71,606762.06]},"properties":{"__style":{"text":"FDC KGU C043M"}}},{"type":"Feature","geometry":{"type":"LineString","coordinates":[[12938383.75,604309.13],[12938384.54,604311.07],[12938387.15,604311.11],[12938386.66,604341.79],[12938386.07,604347.83],[12938388.94,604365.38],[12938391.82,604383.48],[12938394.76,604409.57],[12938398.61,604441.63],[12938402.08,604467.83],[12938406.52,604490.85],[12938426.41,604513.92],[12938445.97,604537.51],[12938466.42,604562.37],[12938486.62,604587.07],[12938508.19,604613.35],[12938530.38,604640.71],[12938553.59,604663.4],[12938576.13,604691.39],[12938661.23,604794.49],[12938747.72,604895.84],[12938885.63,605059.01],[12939047.03,605248.34],[12939196.83,605426.97],[12939248.84,605484.93],[12939281.53,605525.95],[12939327.01,605583.61],[12939546.66,605839.81],[12939585.0,605883.21],[12939655.14,605967.02],[12939707.75,606029.44],[12939770.17,606101.67],[12939798.4,606133.47],[12939843.58,606189.94],[12939884.0,606236.9],[12940018.05,606391.75],[12940171.62,606574.69],[12940181.62,606582.97],[12940190.35,606599.02],[12940199.09,606608.73]]},"properties":{"__style":{"strokeColor":"#FF0000"}}},{"type":"Feature","geometry":{"type":"Point","coordinates":[12940199.09,606608.73]},"properties":{"__style":{"text":"JT F14"}}},{"type":"Feature","geometry":{"type":"LineString","coordinates":[[12938383.75,604309.13],[12938388.08,604309.43],[12938388.55,604314.06],[12938388.7,604329.81],[12938389.11,604348.92],[12938398.96,604412.81],[12938402.84,604456.11],[12938408.67,604482.53],[12938403.59,604486.11],[12938170.64,604211.27],[12938155.08,604193.02],[12938137.98,604172.27],[12938109.13,604138.04],[12938087.15,604111.92],[12938072.67,604094.56],[12938059.08,604078.48],[12938031.97,604046.45],[12938011.07,604021.89],[12937983.9,603989.87],[12937946.8,603945.31],[12937936.57,603932.62],[12937917.83,603908.36],[12937914.03,603903.21],[12937862.15,603843.49],[12937836.92,603810.57],[12937793.33,603758.62],[12937769.81,603728.24]]},"properties":{"__style":{"strokeColor":"#FF0000"}}},{"type":"Feature","geometry":{"type":"Point","coordinates":[12934568.0,599916.02]},"properties":{"__style":{"text":"DP0014"}}},{"type":"Feature","geometry":{"type":"Point","coordinates":[12934597.96,599974.24]},"properties":{"__style":{"text":"FD2 C029M"}}},{"type":"Feature","geometry":{"type":"LineString","coordinates":[[12934808.81,599864.66],[12934814.05,599866.38],[12934863.1,599846.15],[12934929.87,599843.01],[12934930.61,599834.24]]},"properties":{"__style":{"strokeColor":"#0000FF"}}},{"type":"Feature","geometry":{"type":"LineString","coordinates":[[12934753.54,599732.16],[12934735.77,599734.48],[12934671.72,599771.8],[12934667.54,599767.77]]},"properties":{"__style":{"strokeColor":"#0000FF"}}},{"type":"Feature","geometry":{"type":"Point","coordinates":[12934768.02,599730.97]},"properties":{"__style":{"text":"DP0010"}}},{"type":"Feature","geometry":{"type":"LineString","coordinates":[[12934875.95,599623.48],[12934856.99,599585.26],[12934845.65,599562.42],[12934842.89,599551.52],[12934848.86,599550.1]]},"properties":{"__style":{"strokeColor":"#0000FF"}}},{"type":"Feature","geometry":{"type":"Point","coordinates":[12934848.86,599550.1]},"properties":{"__style":{"text":"DP0004"}}},{"type":"Feature","geometry":{"type":"LineString","coordinates":[[12934842.89,599551.52],[12934840.12,599537.49],[12934830.64,599508.97],[12934847.59,599482.48],[12934868.19,599475.09],[12934868.64,599479.41]]},"properties":{"__style":{"strokeColor":"#0000FF"}}},{"type":"Feature","geometry":{"type":"Point","coordinates":[12934868.64,599479.41]},"properties":{"__style":{"text":"DP0003"}}},{"type":"Feature","geometry":{"type":"Point","coordinates":[12933997.6,599261.82]},"properties":{"__style":{"text":"JT F14"}}},{"type":"Feature","geometry":{"type":"LineString","coordinates":[[12934604.03,599981.87],[12934808.81,599864.66]]},"properties":{"__style":{"strokeColor":"#0000FF"}}},{"type":"Feature","geometry":{"type":"LineString","coordinates":[[12930500.22,595031.0],[12930500.06,595030.93]]},"properties":{"__style":{"strokeColor":"#FF0000"}}},{"type":"Feature","geometry":{"type":"LineString","coordinates":[[12930680.91,595535.22],[12930673.49,595527.9]]},"properties":{"__style":{"strokeColor":"#FF0000"}}}]}