{"type":"FeatureCollection","features":[{"type":"Feature","geometry":{"type":"Point","coordinates":[12935815.125077127,601109.9412684534]},"properties":{"__style":{"text":"FD2 C046M","fontFamily":"Calibri","fontSize":14,"fontWeight":"normal","fontStyle":"normal","fontColor":"#0000FF"},"__featureType":"label","__resolution":0.29858214173896974}},{"type":"Feature","geometry":{"type":"Point","coordinates":[12935753.31481328,601132.9340638005]},"properties":{"__style":{"text":"FD2 C046M","fontFamily":"Calibri","fontSize":14,"fontWeight":"normal","fontStyle":"normal","fontColor":"#0000FF"},"__featureType":"label","__resolution":0.29858214173896974}},{"type":"Feature","geometry":{"type":"Point","coordinates":[12935733.068755738,601200.8168423467]},"properties":{"__style":{"text":"FD2 C046M","fontFamily":"Calibri","fontSize":14,"fontWeight":"normal","fontStyle":"normal","fontColor":"#0000FF"},"__featureType":"label","__resolution":0.29858214173896974}},{"type":"Feature","geometry":{"type":"Point","coordinates":[12935715.918324085,601301.1613832035]},"properties":{"__style":{"text":"FD2 C046M","fontFamily":"Calibri","fontSize":14,"fontWeight":"normal","fontStyle":"normal","fontColor":"#0000FF"},"__featureType":"label","__resolution":0.29858214173896974}},{"type":"Feature","geometry":{"type":"Point","coordinates":[12935998.684490541,600925.6441199534]},"properties":{"__style":{"text":"FD2 C046M","fontFamily":"Calibri","fontSize":14,"fontWeight":"normal","fontStyle":"normal","fontColor":"#0000FF"},"__featureType":"label","__resolution":0.14929107086948487}},{"type":"Feature","geometry":{"type":"Point","coordinates":[12936008.551268332,600928.1353111655]},"properties":{"__style":{"text":"DP0011","fontFamily":"Calibri","fontSize":14,"fontWeight":"normal","fontStyle":"normal","fontColor":"#0000FF"},"__featureType":"label","__resolution":0.03732276771737122}},{"type":"Feature","geometry":{"type":"Point","coordinates":[12935999.397294058,600942.2317133805]},"properties":{"__style":{"text":"FD2 C046M","fontFamily":"Calibri","fontSize":14,"fontWeight":"normal","fontStyle":"normal","fontColor":"#0000FF"},"__featureType":"label","__resolution":0.14929107086948487}},{"type":"Feature","geometry":{"type":"Point","coordinates":[12936009.769236904,600959.7105039409]},"properties":{"__style":{"text":"FD2 C046M","fontFamily":"Calibri","fontSize":14,"fontWeight":"normal","fontStyle":"normal","fontColor":"#0000FF"},"__featureType":"label","__resolution":0.14929107086948487}},{"type":"Feature","geometry":{"type":"LineString","coordinates":[[12936056.100474404,600886.3338067661],[12936060.653852066,600892.6040317426],[12935663.371651094,601234.8911390345],[12935659.49008553,601246.7971013668],[12936230.808359202,601931.5952440146],[12936313.814185493,602025.05145324],[12936460.268726014,602190.0180876898],[12936468.143830003,602190.5406064378]]},"properties":{"__style":{"strokeDashstyle":"solid","strokeWidth":4,"strokeColor":"#FF0000","strokeOpacity":0.9,"enableSegmentLength":false,"enableTotalLength":false,"enableArrows":false,"enableAngle":false},"__featureType":"line","__resolution":0.07464553543474244}},{"type":"Feature","geometry":{"type":"Point","coordinates":[12935500.513754163,601027.7124554353]},"properties":{"__style":{"text":"DP0014","fontFamily":"Calibri","fontSize":14,"fontWeight":"normal","fontStyle":"normal","fontColor":"#0000FF"},"__featureType":"label","__resolution":0.03732276771737122}},{"type":"Feature","geometry":{"type":"Point","coordinates":[12935815.965786908,601122.2137032958]},"properties":{"__style":{"text":"DP0009","fontFamily":"Calibri","fontSize":14,"fontWeight":"normal","fontStyle":"normal","fontColor":"#0000FF"},"__featureType":"label","__resolution":0.07464553543474244}},{"type":"Feature","geometry":{"type":"Point","coordinates":[12936280.111730795,601958.3929912358]},"properties":{"__style":{"text":"DP0013","fontFamily":"Calibri","fontSize":14,"fontWeight":"normal","fontStyle":"normal","fontColor":"#0000FF"},"__featureType":"label","__resolution":0.03732276771737122}},{"type":"Feature","geometry":{"type":"LineString","coordinates":[[12936050.959263148,600896.4109586057],[12936051.621742276,600906.4881058894],[12936050.800641388,600924.2537421839],[12935989.815243492,600976.9534913398],[12935926.963698098,601031.9672498162],[12935884.490388434,601068.6182088536],[12935823.728922596,601121.915120015],[12935773.417831713,601165.8066959897],[12935709.670544451,601221.1190371773],[12935674.960370474,601251.872998346],[12935732.213496149,601320.7708275522],[12935769.760200474,601366.5285402043],[12935807.904069083,601412.6594811028],[12935844.555026982,601457.1482196525],[12935876.503316145,601496.038544753],[12936001.236005856,601644.2845778416],[12936045.72474498,601696.4618071105],[12936098.499138528,601759.0147660895],[12936155.005808854,601826.4196843024],[12936204.495798847,601885.9121751897],[12936258.613812039,601950.1819817685],[12936272.199299483,601965.9321903148],[12936280.111730795,601958.3929912358]]},"properties":{"__style":{"strokeDashstyle":"solid","strokeWidth":4,"strokeColor":"#0000FF","strokeOpacity":0.9,"enableSegmentLength":false,"enableTotalLength":false,"enableArrows":false,"enableAngle":false},"__featureType":"line","__resolution":0.07464553543474244}},{"type":"Feature","geometry":{"type":"Point","coordinates":[12935776.702235272,600878.1974479597]},"properties":{"__style":{"text":"DP0007A","fontFamily":"Calibri","fontSize":14,"fontWeight":"normal","fontStyle":"normal","fontColor":"#0000FF"},"__featureType":"label","__resolution":0.01866138385868561}},{"type":"Feature","geometry":{"type":"Point","coordinates":[12935898.299812494,601046.5977759004]},"properties":{"__style":{"text":"DP0010","fontFamily":"Calibri","fontSize":14,"fontWeight":"normal","fontStyle":"normal","fontColor":"#0000FF"},"__featureType":"label","__resolution":0.03732276771737122}},{"type":"Feature","geometry":{"type":"Point","coordinates":[12936171.278535577,600895.0673389678]},"properties":{"__style":{"text":"DP0008","fontFamily":"Calibri","fontSize":14,"fontWeight":"normal","fontStyle":"normal","fontColor":"#0000FF"},"__featureType":"label","__resolution":0.07464553543474244}},{"type":"Feature","geometry":{"type":"LineString","coordinates":[[12936052.676110463,600885.6246787354],[12936056.744293284,600890.9991572867],[12936050.959263148,600896.4109586057]]},"properties":{"__style":{"strokeDashstyle":"solid","strokeWidth":4,"strokeColor":"#0000FF","strokeOpacity":0.9,"enableSegmentLength":false,"enableTotalLength":false,"enableArrows":false,"enableAngle":false},"__featureType":"line","__resolution":0.01866138385868561}},{"type":"Feature","geometry":{"type":"Point","coordinates":[12936050.959263148,600896.4109586057]},"properties":{"__style":{"text":"JT FD2 C046M","fontFamily":"Calibri","fontSize":14,"fontWeight":"normal","fontStyle":"normal","fontColor":"#0000FF"},"__featureType":"label","__resolution":0.01866138385868561}}]}