{"type":"FeatureCollection","features":[{"type":"Feature","geometry":{"type":"LineString","coordinates":[[12938703.357072735,604848.7213648167],[12938712.417837,604839.561367946],[12938728.727886492,604817.242350573],[12938756.365405096,604777.083054787],[12938790.105178,604721.2481851699],[12938801.003435288,604703.3332657776],[12938845.790747436,604641.6760443965],[12938861.466309875,604621.6710500119],[12938876.843290174,604592.5592911923],[12938908.492997203,604518.8094976268],[12938929.841620337,604493.1314288813],[12938943.296480378,604459.0184282997],[12938948.073792366,604460.436693473]]},"properties":{"__style":{"strokeDashstyle":"solid","strokeWidth":4,"strokeColor":"#0000FF","strokeOpacity":0.9,"enableSegmentLength":false,"enableTotalLength":false,"enableArrows":false,"enableAngle":false},"__featureType":"line","__resolution":0.03732276771737122}},{"type":"Feature","geometry":{"type":"Point","coordinates":[12938948.073792366,604460.436693473]},"properties":{"__style":{"text":"DP0003","fontFamily":"Calibri","fontSize":14,"fontWeight":"normal","fontStyle":"normal","fontColor":"#0000FF"},"__featureType":"label","__resolution":0.01866138385868561}},{"type":"Feature","geometry":{"type":"Point","coordinates":[12939021.469015082,604325.850793084]},"properties":{"__style":{"text":"DP0009","fontFamily":"Calibri","fontSize":14,"fontWeight":"normal","fontStyle":"normal","fontColor":"#0000FF"},"__featureType":"label","__resolution":0.03732276771737122}},{"type":"Feature","geometry":{"type":"Point","coordinates":[12939612.960237868,605911.2473201825]},"properties":{"__style":{"text":"DP0002","fontFamily":"Calibri","fontSize":14,"fontWeight":"normal","fontStyle":"normal","fontColor":"#0000FF"},"__featureType":"label","__resolution":0.07464553543474244}},{"type":"Feature","geometry":{"type":"LineString","coordinates":[[12938703.357072735,604848.7213648167],[12938716.523341449,604863.8211666775],[12938734.288978884,604885.2817583997],[12938756.570671206,604911.5943093557],[12939232.82786689,605476.2131396689],[12939603.778837008,605917.2936062748],[12939612.960237868,605911.2473201825]]},"properties":{"__style":{"strokeDashstyle":"solid","strokeWidth":4,"strokeColor":"#0000FF","strokeOpacity":0.9,"enableSegmentLength":false,"enableTotalLength":false,"enableArrows":false,"enableAngle":false},"__featureType":"line","__resolution":0.03732276771737122}},{"type":"Feature","geometry":{"type":"LineString","coordinates":[[12938419.900645016,605068.1259974472],[12938419.452771803,605071.9329197543],[12938406.613739708,605106.9416735952],[12938497.718615705,605188.977119316],[12938535.526579404,605131.8732824305],[12938539.930665994,605131.798639173]]},"properties":{"__style":{"strokeDashstyle":"solid","strokeWidth":4,"strokeColor":"#0000FF","strokeOpacity":0.9,"enableSegmentLength":false,"enableTotalLength":false,"enableArrows":false,"enableAngle":false},"__featureType":"line","__resolution":0.07464553543474244}},{"type":"Feature","geometry":{"type":"LineString","coordinates":[[12938427.589135166,605072.6793751087],[12938409.263665328,605113.7344173199],[12938494.807439823,605193.3065558153],[12938455.693179257,605255.262354782],[12938462.747182354,605256.6806199554]]},"properties":{"__style":{"strokeDashstyle":"solid","strokeWidth":4,"strokeColor":"#0000FF","strokeOpacity":0.9,"enableSegmentLength":false,"enableTotalLength":false,"enableArrows":false,"enableAngle":false},"__featureType":"line","__resolution":0.14929107086948487}},{"type":"Feature","geometry":{"type":"LineString","coordinates":[[12938462.747182354,605256.6806199554],[12938461.926081464,605258.4721128058],[12938453.939009173,605259.1439226248],[12938437.666287003,605289.673946048],[12938351.189429646,605264.8169833176],[12938361.042640325,605325.7277402324],[12938364.924208168,605327.0713598703]]},"properties":{"__style":{"strokeDashstyle":"solid","strokeWidth":4,"strokeColor":"#0000FF","strokeOpacity":0.9,"enableSegmentLength":false,"enableTotalLength":false,"enableArrows":false,"enableAngle":false},"__featureType":"line","__resolution":0.07464553543474244}},{"type":"Feature","geometry":{"type":"Point","coordinates":[12938364.924208168,605327.0713598703]},"properties":{"__style":{"text":"DP0013A","fontFamily":"Calibri","fontSize":14,"fontWeight":"normal","fontStyle":"normal","fontColor":"#0000FF"},"__featureType":"label","__resolution":0.0373423624969843}},{"type":"Feature","geometry":{"type":"LineString","coordinates":[[12942197.636547832,609044.866897733],[12942186.141139932,609056.36231019]]},"properties":{"__style":{"strokeDashstyle":"solid","strokeWidth":4,"strokeColor":"#FF0000","strokeOpacity":0.9,"enableSegmentLength":false,"enableTotalLength":false,"enableArrows":false,"enableAngle":false},"__featureType":"line","__resolution":0.07464553543474244}},{"type":"Feature","geometry":{"type":"Point","coordinates":[12942197.636547832,609044.866897733]},"properties":{"__style":{"text":"JT F14","fontFamily":"Calibri","fontSize":14,"fontWeight":"normal","fontStyle":"normal","fontColor":"#FF0000"},"__featureType":"label","__resolution":0.07464553543474244}},{"type":"Feature","geometry":{"type":"Point","coordinates":[12942186.141139932,609056.36231019]},"properties":{"__style":{"text":"FDC KGU C042M","fontFamily":"Calibri","fontSize":14,"fontWeight":"normal","fontStyle":"normal","fontColor":"#FF0000"},"__featureType":"label","__resolution":0.07464553543474244}},{"type":"Feature","geometry":{"type":"Point","coordinates":[12942705.599416465,609729.0678755279]},"properties":{"__style":{"text":"FDC KGU C044M","fontFamily":"Calibri","fontSize":14,"fontWeight":"normal","fontStyle":"normal","fontColor":"#FF0000"},"__featureType":"label","__resolution":0.07464553543474244}},{"type":"Feature","geometry":{"type":"Point","coordinates":[12942699.179904973,609732.7255067643]},"properties":{"__style":{"text":"JT F14","fontFamily":"Calibri","fontSize":14,"fontWeight":"normal","fontStyle":"normal","fontColor":"#FF0000"},"__featureType":"label","__resolution":0.07464553543474244}},{"type":"Feature","geometry":{"type":"Point","coordinates":[12940199.08847047,606608.7264309985]},"properties":{"__style":{"text":"JT F14","fontFamily":"Calibri","fontSize":14,"fontWeight":"normal","fontStyle":"normal","fontColor":"#FF0000"},"__featureType":"label","__resolution":0.07464558028268643}},{"type":"Feature","geometry":{"type":"LineString","coordinates":[[12940199.08847047,606608.7264309985],[12940205.235238777,606602.7635558941],[12940217.626397658,606618.7377027551],[12940257.039240368,606662.7785663836],[12940316.606377644,606729.9595516919],[12940361.542999087,606781.3156812099],[12940435.143497026,606868.0537933852],[12940495.904953757,606940.1613794761],[12940554.874926753,607010.1788882968],[12940626.236058628,607095.5733853901],[12940683.862411985,607160.2164185072],[12940710.585513668,607190.821088605],[12940752.984177796,607244.1179986274],[12940801.503775828,607301.2964810483],[12940909.590511138,607429.0896377126],[12940986.773994777,607514.9320034627],[12941105.46039612,607654.3698636547],[12941147.11260489,607702.2922974037],[12941177.71727442,607741.2572669006],[12941254.751466988,607840.5358290289],[12941269.08340979,607860.3915368986],[12941357.015850535,607961.9094696457],[12941456.81696786,608073.2806085144],[12941475.926188482,608104.3331512553],[12941564.306502437,608214.2113794152],[12941594.16471661,608247.652570178],[12941658.807750296,608319.3122921683],[12941775.2548038,608457.5558249325],[12941848.705992442,608545.6375556065],[12942033.229756033,608766.2897549346],[12942080.405734431,608822.7217842792],[12942133.851937803,608881.24388406],[12942202.4138621,608972.9832471095],[12942207.116530832,608978.8802444089]]},"properties":{"__style":{"strokeDashstyle":"solid","strokeWidth":4,"strokeColor":"#FF0000","strokeOpacity":0.9,"enableSegmentLength":false,"enableTotalLength":false,"enableArrows":false,"enableAngle":false},"__featureType":"line","__resolution":0.14929107086948487}},{"type":"Feature","geometry":{"type":"LineString","coordinates":[[12940199.08847047,606608.7264309985],[12940202.659967802,606614.0350340228],[12940177.056549149,606629.9345330703],[12940175.787575046,606632.2485469468]]},"properties":{"__style":{"strokeDashstyle":"solid","strokeWidth":4,"strokeColor":"#FF0000","strokeOpacity":0.9,"enableSegmentLength":false,"enableTotalLength":false,"enableArrows":false,"enableAngle":false},"__featureType":"line","__resolution":0.07464553543474244}},{"type":"Feature","geometry":{"type":"LineString","coordinates":[[12942207.116530832,608978.8802444089],[12942273.065861387,608934.9886695731],[12942299.341089861,608919.4623982026],[12942321.286877278,608900.3531411313],[12942344.427011488,608885.7226161861],[12942373.090878868,608876.0186965797],[12942460.72473747,608862.1346269888],[12942494.763101626,608851.6842520279],[12942521.784785455,608840.6367127835],[12942559.406135313,608822.7217842792],[12942616.733906528,608789.877748688],[12942648.532904623,608774.6500549032],[12942676.898208087,608757.0337130966],[12942704.517056203,608734.789341259],[12942725.417806124,608695.973660555],[12942698.246831227,608686.2697455045],[12942700.934070501,608661.3381366692],[12942701.083361572,608628.0462233094],[12942693.170934815,608598.4865958332],[12942664.357758136,608553.2514013599],[12942640.023313586,608518.6158717792],[12942623.75058686,608498.3122850019],[12942604.64132979,608470.9920213107],[12942592.69804412,608439.1930209375],[12942590.010804843,608407.8418983329],[12942593.444508586,608372.6092033297],[12942613.748094225,608283.034560808],[12942611.807301192,608232.1263079195],[12942602.999128012,608173.454917068],[12942611.807301193,608145.2389046736],[12942637.933238596,608128.2197225945],[12942671.673020612,608116.4257279958],[12942703.91989192,608108.3640101687],[12942736.46534537,608112.5441601531],[12942791.10589553,608123.5916971194],[12942841.118386049,608133.4449100748],[12942879.934064474,608132.3998703007],[12942946.81646422,608121.6509154761],[12943016.479410166,608108.4013323671],[12943087.728578297,608083.6936595686],[12943097.189895354,608080.4465787773],[12943144.888392497,608049.8419103879],[12943160.638600474,608039.0183077499],[12943201.171126215,607998.0379087961],[12943246.107738549,607942.7255670391],[12943271.860448275,607917.2714394558],[12943282.907987518,607884.6513404709],[12943236.58111201,607754.02197179],[12943222.91084116,607719.2860376625],[12943214.196781259,607691.8419224428],[12943197.47617221,607651.3840422372],[12943177.471168717,607577.4849621569],[12943171.648816952,607548.0746211956],[12943158.511211826,607514.1855481083],[12943134.923213517,607486.5666999974],[12943109.54373147,607469.9953911309],[12943079.237644084,607448.4974769256],[12943104.766417202,607409.8310895704],[12943159.70553128,607311.896137968],[12943185.234304398,607325.4816345292],[12943213.898190005,607336.6784648444],[12943240.770582763,607357.579214766],[12943248.08584524,607358.9228344039],[12943248.384445604,607325.0337613166],[12943289.140889723,607259.4949812049],[12943282.721373675,607220.6793005009],[12943254.505361283,607145.7351840633],[12943218.974086417,607079.5992408071],[12943171.64881695,607027.0487793051],[12943149.852320604,606992.4132554193],[12943133.430302808,606949.8653002216],[12943122.233472493,606917.6184289138],[12943106.110036843,606885.222266535],[12943097.003281519,606853.7218505816],[12943092.82313153,606817.4441203603],[12943082.52204764,606775.3440383751],[12943084.164258532,606764.1471989478],[12943043.706369217,606762.0571330677]]},"properties":{"__style":{"strokeDashstyle":"solid","strokeWidth":4,"strokeColor":"#FF0000","strokeOpacity":0.9,"enableSegmentLength":false,"enableTotalLength":false,"enableArrows":false,"enableAngle":false},"__featureType":"line","__resolution":0.29858214173896974}},{"type":"Feature","geometry":{"type":"Point","coordinates":[12943043.706369217,606762.0571330677]},"properties":{"__style":{"text":"FDC KGU C043M","fontFamily":"Calibri","fontSize":14,"fontWeight":"normal","fontStyle":"normal","fontColor":"#FF0000"},"__featureType":"label","__resolution":0.14929107086948487,"__rotation":-0.938047491831778}},{"type":"Feature","geometry":{"type":"Point","coordinates":[12942207.116530832,608978.8802444089]},"properties":{"__style":{"text":"JT F14","fontFamily":"Calibri","fontSize":14,"fontWeight":"normal","fontStyle":"normal","fontColor":"#FF0000"},"__featureType":"label","__resolution":0.07464553543474244}},{"type":"Feature","geometry":{"type":"LineString","coordinates":[[12942207.116530832,608978.8802444089],[12942181.81169432,608998.661311299],[12942195.39718177,609017.8452139057],[12942208.086922793,609033.9686484205],[12942197.636547832,609044.866897733]]},"properties":{"__style":{"strokeDashstyle":"solid","strokeWidth":4,"strokeColor":"#FF0000","strokeOpacity":0.9,"enableSegmentLength":false,"enableTotalLength":false,"enableArrows":false,"enableAngle":false},"__featureType":"line","__resolution":0.07464553543474244}},{"type":"Feature","geometry":{"type":"LineString","coordinates":[[12942197.636547832,609044.866897733],[12942237.42261822,609090.7739020254],[12942258.323368141,609114.8097638659],[12942283.777495721,609142.20467594],[12942302.886752794,609162.8068437199],[12942319.159479517,609180.3485445471],[12942332.744966967,609194.8297784214],[12942345.285416922,609207.8927471224],[12942361.156923892,609224.2961035343],[12942384.02644981,609247.9027541156],[12942399.552721182,609264.1008350202],[12942434.710768374,609299.482817962],[12942476.13904054,609359.0499540999],[12942492.635703871,609384.8773116383],[12942509.43094934,609409.2864017254],[12942527.943042127,609434.7405287392],[12942551.531035885,609468.1070836481],[12942567.729117073,609503.638358515],[12942689.177398669,609737.8760487093],[12942699.179904973,609732.7255067643],[12942705.599416465,609729.0678755279]]},"properties":{"__style":{"strokeDashstyle":"solid","strokeWidth":4,"strokeColor":"#FF0000","strokeOpacity":0.9,"enableSegmentLength":false,"enableTotalLength":false,"enableArrows":false,"enableAngle":false},"__featureType":"line","__resolution":0.07464553543474244}},{"type":"Feature","geometry":{"type":"Point","coordinates":[12938421.673476482,604503.9177172942]},"properties":{"__style":{"text":"JT FD2 C045M","fontFamily":"Calibri","fontSize":14,"fontWeight":"normal","fontStyle":"normal","fontColor":"#0000FF"},"__featureType":"label","__resolution":0.03732276771737122}},{"type":"Feature","geometry":{"type":"LineString","coordinates":[[12938421.673476482,604503.9177172942],[12938465.359776093,604557.3265973282],[12938488.94776529,604586.2144206804],[12938504.17545452,604604.3532857911],[12938515.969453674,604619.0584562718],[12938519.627080355,604616.5951536024]]},"properties":{"__style":{"strokeDashstyle":"solid","strokeWidth":4,"strokeColor":"#0000FF","strokeOpacity":0.9,"enableSegmentLength":false,"enableTotalLength":false,"enableArrows":false,"enableAngle":false},"__featureType":"line","__resolution":0.07464553543474244}},{"type":"Feature","geometry":{"type":"LineString","coordinates":[[12938421.673476482,604503.9177172942],[12938421.864756234,604509.6840851912],[12938428.498877628,604517.7644646514],[12938450.598621463,604544.7861485142],[12938471.760630757,604570.68814931],[12938493.706418179,604597.1873143894],[12938531.169146273,604642.9077048431],[12938540.219917443,604653.6193391068],[12938561.633855421,604678.9614978887],[12938624.979263302,604754.2201180223],[12938703.357072735,604848.7213648167]]},"properties":{"__style":{"strokeDashstyle":"solid","strokeWidth":4,"strokeColor":"#0000FF","strokeOpacity":0.9,"enableSegmentLength":false,"enableTotalLength":false,"enableArrows":false,"enableAngle":false},"__featureType":"line","__resolution":0.07464553543474244}},{"type":"Feature","geometry":{"type":"Point","coordinates":[12938433.360723417,604512.4513201048]},"properties":{"__style":{"text":"FD1 C045M","fontFamily":"Calibri","fontSize":14,"fontWeight":"normal","fontStyle":"normal","fontColor":"#0000FF"},"__featureType":"label","__resolution":0.03732276771737122}},{"type":"Feature","geometry":{"type":"Point","coordinates":[12938703.357072735,604848.7213648167]},"properties":{"__style":{"text":"JT FD2 C045M","fontFamily":"Calibri","fontSize":14,"fontWeight":"normal","fontStyle":"normal","fontColor":"#0000FF"},"__featureType":"label","__resolution":0.03732276771737122}},{"type":"Feature","geometry":{"type":"Point","coordinates":[12940175.787575046,606632.2485469468]},"properties":{"__style":{"text":"FDC KGU C041M","fontFamily":"Calibri","fontSize":14,"fontWeight":"normal","fontStyle":"normal","fontColor":"#FF0000"},"__featureType":"label","__resolution":0.07464553543474244}},{"type":"Feature","geometry":{"type":"Point","coordinates":[12938383.753544478,604309.1301931466]},"properties":{"__style":{"text":"JT F14","fontFamily":"Calibri","fontSize":14,"fontWeight":"normal","fontStyle":"normal","fontColor":"#FF0000"},"__featureType":"label","__resolution":0.03732276771737122}},{"type":"Feature","geometry":{"type":"LineString","coordinates":[[12938383.753544478,604309.1301931466],[12938384.537322605,604311.0709764985],[12938387.149916345,604311.1082998357],[12938386.664720362,604341.7876148993],[12938386.067556078,604347.8339032695],[12938388.941409193,604365.3756039543],[12938391.815262308,604383.4771464396],[12938394.763763236,604409.5657610742],[12938398.608006032,604441.6260179738],[12938402.079023432,604467.826601481],[12938406.520432787,604490.8547491626],[12938426.413467983,604513.9202194696],[12938445.970598264,604537.5082086669],[12938466.423474975,604562.3651718243],[12938486.61509231,604587.0728441956],[12938508.18765205,604613.3480725263],[12938530.376037458,604640.7056569918],[12938553.590798976,604663.3979020419],[12938576.133750677,604691.3899795385],[12938661.232743604,604794.4860983827],[12938747.724179467,604895.8386057001],[12938885.634922566,605059.0131702669],[12939047.026158554,605248.3432205926],[12939196.825758815,605426.9732994718],[12939248.839508902,605484.931478143],[12939281.533866102,605525.9480353564],[12939327.00874475,605583.6089925985],[12939546.655380847,605839.8138599329],[12939584.996945199,605883.2081931143],[12939655.141202461,605967.0246361159],[12939707.74939541,606029.4411362233],[12939770.165913658,606101.6659434905],[12939798.40193128,606133.4686364023],[12939843.5795885,606189.9407079282],[12939884.001702854,606236.9016937233],[12940018.048567371,606391.7540582756],[12940171.618896928,606574.6880486676],[12940181.621404685,606582.9737069401],[12940190.354937578,606599.0225078398],[12940199.08847047,606608.7264309985]]},"properties":{"__style":{"strokeDashstyle":"solid","strokeWidth":4,"strokeColor":"#FF0000","strokeOpacity":0.9,"enableSegmentLength":false,"enableTotalLength":false,"enableArrows":false,"enableAngle":false},"__featureType":"line","__resolution":0.03732276771737122}},{"type":"Feature","geometry":{"type":"LineString","coordinates":[[12938421.694623398,604504.5552176072],[12938419.546078721,604513.8082501697],[12938610.209446717,604744.3883102668],[12938427.589135166,605072.6793751087],[12938419.900645016,605068.1259974472]]},"properties":{"__style":{"strokeDashstyle":"solid","strokeWidth":4,"strokeColor":"#0000FF","strokeOpacity":0.9,"enableSegmentLength":false,"enableTotalLength":false,"enableArrows":false,"enableAngle":false},"__featureType":"line","__resolution":0.03732276771737122}},{"type":"Feature","geometry":{"type":"Point","coordinates":[12938519.627080355,604616.5951536024]},"properties":{"__style":{"text":"DP0004","fontFamily":"Calibri","fontSize":14,"fontWeight":"normal","fontStyle":"normal","fontColor":"#0000FF"},"__featureType":"label","__resolution":0.03732276771737122}},{"type":"Feature","geometry":{"type":"Point","coordinates":[12938539.930665994,605131.798639173]},"properties":{"__style":{"text":"DP0014A","fontFamily":"Calibri","fontSize":14,"fontWeight":"normal","fontStyle":"normal","fontColor":"#0000FF"},"__featureType":"label","__resolution":0.03732276771737122}},{"type":"Feature","geometry":{"type":"LineString","coordinates":[[12938703.357072735,604848.7213648167],[12938710.495714461,604849.2652875526],[12938732.74008402,604817.6155805283],[12938757.820983926,604784.3236717243],[12938760.657514274,604781.4124958423],[12938784.170857934,604742.8207540225],[12938829.032824732,604677.2073283754],[12938861.802214788,604629.732765561],[12938887.480278976,604575.316172507],[12938912.635824418,604520.6756405687],[12938930.1775298,604479.172718311],[12938952.68316329,604428.1898221652],[12938985.639162632,604360.7849036675],[12939006.539912552,604318.6848216823],[12939021.469015082,604325.850793084]]},"properties":{"__style":{"strokeDashstyle":"solid","strokeWidth":4,"strokeColor":"#0000FF","strokeOpacity":0.9,"enableSegmentLength":false,"enableTotalLength":false,"enableArrows":false,"enableAngle":false},"__featureType":"line","__resolution":0.07464553543474244}},{"type":"Feature","geometry":{"type":"Point","coordinates":[12938419.900645016,605068.1259974472]},"properties":{"__style":{"text":"DP0014","fontFamily":"Calibri","fontSize":14,"fontWeight":"normal","fontStyle":"normal","fontColor":"#0000FF"},"__featureType":"label","__resolution":0.03732276771737122}},{"type":"Feature","geometry":{"type":"Point","coordinates":[12938462.747182354,605256.6806199554]},"properties":{"__style":{"text":"DP0013","fontFamily":"Calibri","fontSize":14,"fontWeight":"normal","fontStyle":"normal","fontColor":"#0000FF"},"__featureType":"label","__resolution":0.01866138385868561}},{"type":"Feature","geometry":{"type":"Point","coordinates":[12938370.541284708,604305.3232708396]},"properties":{"__style":{"text":"FD1 C045M","fontFamily":"Calibri","fontSize":14,"fontWeight":"normal","fontStyle":"normal","fontColor":"#0000FF"},"__featureType":"label","__resolution":0.03732276771737122}},{"type":"Feature","geometry":{"type":"LineString","coordinates":[[12938370.541284708,604305.3232708396],[12938394.091951137,604307.2640541914],[12938391.180777535,604338.5032090623],[12938397.97351898,604375.2288136352],[12938402.414928336,604403.4075044007],[12938405.923268504,604431.3249343686],[12938408.51720086,604468.1998200461],[12938411.204440136,604485.5175933789],[12938458.977591926,604543.5918199472],[12938470.622286344,604559.8645466721],[12938489.936818635,604580.0561640072],[12938491.243117783,604580.0561640072],[12938494.191614155,604577.55553857]]},"properties":{"__style":{"strokeDashstyle":"solid","strokeWidth":4,"strokeColor":"#0000FF","strokeOpacity":0.9,"enableSegmentLength":false,"enableTotalLength":false,"enableArrows":false,"enableAngle":false},"__featureType":"line","__resolution":0.03732276771737122}},{"type":"Feature","geometry":{"type":"Point","coordinates":[12938373.093228953,604308.8689337727]},"properties":{"__style":{"text":"FD2 C045M","fontFamily":"Calibri","fontSize":14,"fontWeight":"normal","fontStyle":"normal","fontColor":"#0000FF"},"__featureType":"label","__resolution":0.009330691929342804}},{"type":"Feature","geometry":{"type":"LineString","coordinates":[[12938373.093228953,604308.8689337727],[12938388.866763659,604309.6527107556],[12938385.657005632,604339.063052856],[12938398.421392193,604413.55929722],[12938404.057130119,604456.8163844348],[12938407.938697962,604487.4957000681],[12938421.673476482,604503.9177172942]]},"properties":{"__style":{"strokeDashstyle":"solid","strokeWidth":4,"strokeColor":"#0000FF","strokeOpacity":0.9,"enableSegmentLength":false,"enableTotalLength":false,"enableArrows":false,"enableAngle":false},"__featureType":"line","__resolution":0.009330691929342804}},{"type":"Feature","geometry":{"type":"Point","coordinates":[12938494.191614155,604577.55553857]},"properties":{"__style":{"text":"DP0001","fontFamily":"Calibri","fontSize":14,"fontWeight":"normal","fontStyle":"normal","fontColor":"#0000FF"},"__featureType":"label","__resolution":0.03732276771737122}},{"type":"Feature","geometry":{"type":"LineString","coordinates":[[12939006.539912552,604318.6848216823],[12939124.778436126,604082.6556386377]]},"properties":{"__style":{"strokeDashstyle":"solid","strokeWidth":4,"strokeColor":"#0000FF","strokeOpacity":0.9,"enableSegmentLength":false,"enableTotalLength":false,"enableArrows":false,"enableAngle":false},"__featureType":"line","__resolution":0.14929107086948487}},{"type":"Feature","geometry":{"type":"Point","coordinates":[12939124.778436126,604082.6556386377]},"properties":{"__style":{"text":"JT FD2 C045M","fontFamily":"Calibri","fontSize":14,"fontWeight":"normal","fontStyle":"normal","fontColor":"#0000FF"},"__featureType":"label","__resolution":0.07464553543474244}},{"type":"Feature","geometry":{"type":"LineString","coordinates":[[12939021.469015082,604325.850793084],[12939020.125395445,604322.417098454],[12939009.600374948,604317.789075257],[12939064.240906887,604208.1347837035],[12938988.811593331,604160.2123499544],[12938968.02281171,604138.1919170012],[12938905.124617418,604116.2088068156],[12938900.851160513,604127.0697322213]]},"properties":{"__style":{"strokeDashstyle":"solid","strokeWidth":4,"strokeColor":"#0000FF","strokeOpacity":0.9,"enableSegmentLength":false,"enableTotalLength":false,"enableArrows":false,"enableAngle":false},"__featureType":"line","__resolution":0.07464553543474244}},{"type":"Feature","geometry":{"type":"Point","coordinates":[12938900.851160513,604127.0697322213]},"properties":{"__style":{"text":"DP0009A","fontFamily":"Calibri","fontSize":14,"fontWeight":"normal","fontStyle":"normal","fontColor":"#0000FF"},"__featureType":"label","__resolution":0.07464553543474244}},{"type":"Feature","geometry":{"type":"Point","coordinates":[12937769.812676914,603728.2386363934]},"properties":{"__style":{"text":"JT F14","fontFamily":"Calibri","fontSize":14,"fontWeight":"normal","fontStyle":"normal","fontColor":"#FF0000"},"__featureType":"label","__resolution":0.07464553543474244}},{"type":"Feature","geometry":{"type":"LineString","coordinates":[[12938383.753544478,604309.1301931466],[12938388.082985533,604309.4287752884],[12938388.549520131,604314.0567984853],[12938388.698811203,604329.8070061774],[12938389.10936165,604348.9162635334],[12938398.962572327,604412.8128407265],[12938402.84414017,604456.1072524176],[12938408.666491933,604482.5317719615],[12938403.590595525,604486.1147576624],[12938170.64054537,604211.2698961917],[12938155.076946674,604193.0190622085],[12938137.98311906,604172.2676039271],[12938109.132619616,604138.0426247913],[12938087.149509432,604111.9166885281],[12938072.668275556,604094.5616015395],[12938059.082788108,604078.4754886533],[12938031.967797363,604046.452553952],[12938011.067047441,604021.894172794],[12937983.896072542,603989.8712380922],[12937946.797241429,603945.3078534377],[12937936.570803076,603932.6181124138],[12937917.83477368,603908.3583111195],[12937914.027851373,603903.2077714525],[12937862.149204247,603843.4913431047],[12937836.919013267,603810.5726619781],[12937793.326020576,603758.6193693154],[12937769.812676914,603728.2386363934]]},"properties":{"__style":{"strokeDashstyle":"solid","strokeWidth":4,"strokeColor":"#FF0000","strokeOpacity":0.9,"enableSegmentLength":false,"enableTotalLength":false,"enableArrows":false,"enableAngle":false},"__featureType":"line","__resolution":0.07464553543474244}},{"type":"Feature","geometry":{"type":"LineString","coordinates":[[12938403.889186775,604110.1998412132],[12938412.100186558,603987.3332898874],[12938412.249477629,603951.6527239496],[12938376.363638751,603871.1101912156],[12938389.277314102,603866.967363999]]},"properties":{"__style":{"strokeDashstyle":"solid","strokeWidth":4,"strokeColor":"#0000FF","strokeOpacity":0.9,"enableSegmentLength":false,"enableTotalLength":false,"enableArrows":false,"enableAngle":false},"__featureType":"line","__resolution":0.14929107086948487}},{"type":"Feature","geometry":{"type":"LineString","coordinates":[[12938400.698081024,604216.6070519753],[12938401.649820713,604136.9229428988],[12938403.889186775,604110.1998412132],[12938413.294524241,604110.349132284]]},"properties":{"__style":{"strokeDashstyle":"solid","strokeWidth":4,"strokeColor":"#0000FF","strokeOpacity":0.9,"enableSegmentLength":false,"enableTotalLength":false,"enableArrows":false,"enableAngle":false},"__featureType":"line","__resolution":0.14929107086948487}},{"type":"Feature","geometry":{"type":"LineString","coordinates":[[12938421.688275827,604504.3638621013],[12938417.717263103,604504.9254325919],[12938329.598210802,604402.4371124401],[12938145.410349837,604183.7256936163],[12938150.74750562,604179.3962525611]]},"properties":{"__style":{"strokeDashstyle":"solid","strokeWidth":4,"strokeColor":"#0000FF","strokeOpacity":0.9,"enableSegmentLength":false,"enableTotalLength":false,"enableArrows":false,"enableAngle":false},"__featureType":"line","__resolution":0.03732276771737122}},{"type":"Feature","geometry":{"type":"Point","coordinates":[12938413.294524241,604110.349132284]},"properties":{"__style":{"text":"DP0011","fontFamily":"Calibri","fontSize":14,"fontWeight":"normal","fontStyle":"normal","fontColor":"#0000FF"},"__featureType":"label","__resolution":0.03732276771737122}},{"type":"Feature","geometry":{"type":"Point","coordinates":[12938389.277314102,603866.967363999]},"properties":{"__style":{"text":"DP0010","fontFamily":"Calibri","fontSize":14,"fontWeight":"normal","fontStyle":"normal","fontColor":"#0000FF"},"__featureType":"label","__resolution":0.07467591612981062}},{"type":"Feature","geometry":{"type":"Point","coordinates":[12938150.74750562,604179.3962525611]},"properties":{"__style":{"text":"DP0005","fontFamily":"Calibri","fontSize":14,"fontWeight":"normal","fontStyle":"normal","fontColor":"#0000FF"},"__featureType":"label","__resolution":0.03732276771737122}},{"type":"Feature","geometry":{"type":"LineString","coordinates":[[12938400.698081024,604216.6070519753],[12938405.960591272,604211.8297365685],[12938465.247807791,604211.5684737775],[12938471.667323839,604211.2698961918]]},"properties":{"__style":{"strokeDashstyle":"solid","strokeWidth":4,"strokeColor":"#0000FF","strokeOpacity":0.9,"enableSegmentLength":false,"enableTotalLength":false,"enableArrows":false,"enableAngle":false},"__featureType":"line","__resolution":0.03732276771737122}},{"type":"Feature","geometry":{"type":"LineString","coordinates":[[12938421.673476482,604503.9177172942],[12938421.86009032,604493.9152161154],[12938412.753334993,604483.2409045483],[12938412.38010732,604471.9694281281],[12938409.506254205,604442.8949926458],[12938405.736654665,604404.7511217606],[12938396.392894058,604350.7216316385],[12938394.75089605,604339.6754019257],[12938397.139260931,604292.803562334],[12938399.826190783,604240.5578812604],[12938400.698081024,604216.6070519753]]},"properties":{"__style":{"strokeDashstyle":"solid","strokeWidth":4,"strokeColor":"#0000FF","strokeOpacity":0.9,"enableSegmentLength":false,"enableTotalLength":false,"enableArrows":false,"enableAngle":false},"__featureType":"line","__resolution":0.03732276771737122}},{"type":"Feature","geometry":{"type":"Point","coordinates":[12938400.698081024,604216.6070519753]},"properties":{"__style":{"text":"JT FD2 C045M","fontFamily":"Calibri","fontSize":14,"fontWeight":"normal","fontStyle":"normal","fontColor":"#0000FF"},"__featureType":"label","__resolution":0.03732276771737122}},{"type":"Feature","geometry":{"type":"Point","coordinates":[12938369.906797655,604308.42106056]},"properties":{"__style":{"text":"FDC KGU C045M","fontFamily":"Calibri","fontSize":14,"fontWeight":"normal","fontStyle":"normal","fontColor":"#FF0000"},"__featureType":"label","__resolution":0.03732276771737122}},{"type":"Feature","geometry":{"type":"LineString","coordinates":[[12938369.906797655,604308.42106056],[12938383.753544478,604309.1301931466],[12938388.082985533,604309.4287752884]]},"properties":{"__style":{"strokeDashstyle":"solid","strokeWidth":4,"strokeColor":"#FF0000","strokeOpacity":0.9,"enableSegmentLength":false,"enableTotalLength":false,"enableArrows":false,"enableAngle":false},"__featureType":"line","__resolution":0.03732276771737122}},{"type":"Feature","geometry":{"type":"Point","coordinates":[12938471.667323839,604211.2698961918]},"properties":{"__style":{"text":"DP0012","fontFamily":"Calibri","fontSize":14,"fontWeight":"normal","fontStyle":"normal","fontColor":"#0000FF"},"__featureType":"label","__resolution":0.03732276771737122}},{"type":"Feature","geometry":{"type":"LineString","coordinates":[[12939194.236106848,603940.1573114927],[12939236.112252224,603847.7461386244],[12939252.832852162,603793.404188828],[12939252.53427002,603775.1906781819],[12939238.202327216,603740.8537318821],[12939169.2298707,603679.6443928255],[12939088.91125635,603570.9604932326],[12939070.697745705,603526.7703362552],[12939051.887070775,603482.5801792778],[12939040.540949387,603453.9162936709],[12939032.777813703,603444.9588294188],[12939015.945245462,603447.944650836]]},"properties":{"__style":{"strokeDashstyle":"solid","strokeWidth":4,"strokeColor":"#0000FF","strokeOpacity":0.9,"enableSegmentLength":false,"enableTotalLength":false,"enableArrows":false,"enableAngle":false},"__featureType":"line","__resolution":0.29858214173896974}},{"type":"Feature","geometry":{"type":"Point","coordinates":[12939015.945245462,603447.944650836]},"properties":{"__style":{"text":"DP0007","fontFamily":"Calibri","fontSize":14,"fontWeight":"normal","fontStyle":"normal","fontColor":"#0000FF"},"__featureType":"label","__resolution":0.07464553543474244}},{"type":"Feature","geometry":{"type":"LineString","coordinates":[[12939207.821594298,603945.3824989732],[12939207.802932914,603939.746761048],[12939193.060439665,603935.0440923156],[12939165.217654943,603993.0063502959],[12939129.74236423,604066.9054306609],[12939108.543032166,604103.7803251657],[12939024.044286054,604065.4125199522],[12939037.480482433,604041.2273664713],[12938990.005921897,604020.3266165496],[12938991.648123676,604012.2648896107]]},"properties":{"__style":{"strokeDashstyle":"solid","strokeWidth":4,"strokeColor":"#0000FF","strokeOpacity":0.9,"enableSegmentLength":false,"enableTotalLength":false,"enableArrows":false,"enableAngle":false},"__featureType":"line","__resolution":0.03732276771737122}},{"type":"Feature","geometry":{"type":"Point","coordinates":[12939207.802932914,603939.746761048]},"properties":{"__style":{"text":"DP0008","fontFamily":"Calibri","fontSize":14,"fontWeight":"normal","fontStyle":"normal","fontColor":"#0000FF"},"__featureType":"label","__resolution":0.07464553543474244}},{"type":"Feature","geometry":{"type":"LineString","coordinates":[[12939124.778436126,604082.6556386377],[12939166.318676597,603998.9779934153],[12939194.236106848,603940.1573114927],[12939207.821594298,603945.3824989732]]},"properties":{"__style":{"strokeDashstyle":"solid","strokeWidth":4,"strokeColor":"#0000FF","strokeOpacity":0.9,"enableSegmentLength":false,"enableTotalLength":false,"enableArrows":false,"enableAngle":false},"__featureType":"line","__resolution":0.14929107086948487}},{"type":"Feature","geometry":{"type":"Point","coordinates":[12938991.648123676,604012.2648896107]},"properties":{"__style":{"text":"DP0008A","fontFamily":"Calibri","fontSize":14,"fontWeight":"normal","fontStyle":"normal","fontColor":"#0000FF"},"__featureType":"label","__resolution":0.03732276771737122}},{"type":"Feature","geometry":{"type":"Point","coordinates":[12936468.143830003,602190.5406064378]},"properties":{"__style":{"text":"JT F14","fontFamily":"Calibri","fontSize":14,"fontWeight":"normal","fontStyle":"normal","fontColor":"#FF0000"},"__featureType":"label","__resolution":0.07464553543474244}},{"type":"Feature","geometry":{"type":"LineString","coordinates":[[12937173.544139858,603028.1381572732],[12937333.285585692,602840.4046379328],[12937339.182582991,602845.1073066652]]},"properties":{"__style":{"strokeDashstyle":"solid","strokeWidth":4,"strokeColor":"#0000FF","strokeOpacity":0.9,"enableSegmentLength":false,"enableTotalLength":false,"enableArrows":false,"enableAngle":false},"__featureType":"line","__resolution":0.14929107086948487}},{"type":"Feature","geometry":{"type":"LineString","coordinates":[[12938145.410349837,604183.7256936163],[12937371.690713674,603268.7953657926],[12937173.544139858,603028.1381572732]]},"properties":{"__style":{"strokeDashstyle":"solid","strokeWidth":4,"strokeColor":"#0000FF","strokeOpacity":0.9,"enableSegmentLength":false,"enableTotalLength":false,"enableArrows":false,"enableAngle":false},"__featureType":"line","__resolution":0.03732276771737122}},{"type":"Feature","geometry":{"type":"Point","coordinates":[12937173.544139858,603028.1381572732]},"properties":{"__style":{"text":"JT FD2 C045M","fontFamily":"Calibri","fontSize":14,"fontWeight":"normal","fontStyle":"normal","fontColor":"#0000FF"},"__featureType":"label","__resolution":0.07464553543474244}},{"type":"Feature","geometry":{"type":"LineString","coordinates":[[12937173.544139858,603028.1381572732],[12937183.322705,603032.915473819],[12937509.449049318,603427.342480778],[12937518.854386782,603418.3103732684]]},"properties":{"__style":{"strokeDashstyle":"solid","strokeWidth":4,"strokeColor":"#0000FF","strokeOpacity":0.9,"enableSegmentLength":false,"enableTotalLength":false,"enableArrows":false,"enableAngle":false},"__featureType":"line","__resolution":0.07464553543474244}},{"type":"Feature","geometry":{"type":"Point","coordinates":[12937518.854386782,603418.3103732684]},"properties":{"__style":{"text":"DP0015","fontFamily":"Calibri","fontSize":14,"fontWeight":"normal","fontStyle":"normal","fontColor":"#0000FF"},"__featureType":"label","__resolution":0.03732276771737122}},{"type":"Feature","geometry":{"type":"Point","coordinates":[12937339.182582991,602845.1073066652]},"properties":{"__style":{"text":"DP0006","fontFamily":"Calibri","fontSize":14,"fontWeight":"normal","fontStyle":"normal","fontColor":"#0000FF"},"__featureType":"label","__resolution":0.07464553543474244}},{"type":"Feature","geometry":{"type":"Point","coordinates":[12933997.60054372,599261.8230213777]},"properties":{"__style":{"text":"JT F14","fontFamily":"Calibri","fontSize":14,"fontWeight":"normal","fontStyle":"normal","fontColor":"#FF0000"},"__featureType":"label","__resolution":0.01866138385868561}},{"type":"Feature","geometry":{"type":"LineString","coordinates":[[12935164.655498167,600651.6669087296],[12935210.123959938,600702.0339837641],[12935254.407423833,600751.9718452615],[12935305.46497007,600816.1670080133],[12935344.579230638,600862.5218849488],[12935380.85696086,600905.2191306481],[12935423.031688381,600952.4697557172],[12935450.575890953,600983.3730073872],[12935477.597574785,601014.0523224509],[12935505.96287825,601048.6132047877],[12935539.10549598,601089.5189587753],[12935577.6972378,601134.3809244327],[12935612.258120704,601174.9134513127],[12935622.409913523,601186.7074453419],[12935644.206409872,601212.4601556363],[12935674.213919673,601246.573163052],[12935697.05544896,601272.2512292349],[12935726.465789923,601306.8867568224],[12935759.01124337,601346.3742450674],[12935791.705987893,601386.8321258425],[12935813.651775312,601413.1073537461],[12935851.086511333,601459.0890047128],[12935977.386757288,601605.9914138924],[12936060.094010549,601704.5235252223],[12936111.748721069,601767.5243548512],[12936188.185767578,601861.2791496351],[12936248.200759843,601929.6544555373],[12936293.88382753,601986.3850647457],[12936444.66780911,602166.4300962144],[12936468.143830003,602190.5406064378]]},"properties":{"__style":{"strokeDashstyle":"solid","strokeWidth":4,"strokeColor":"#FF0000","strokeOpacity":0.9,"enableSegmentLength":false,"enableTotalLength":false,"enableArrows":false,"enableAngle":false},"__featureType":"line","__resolution":0.03732276771737122}},{"type":"Feature","geometry":{"type":"Point","coordinates":[12935164.655498167,600651.6669087296]},"properties":{"__style":{"text":"JT F14","fontFamily":"Calibri","fontSize":14,"fontWeight":"normal","fontStyle":"normal","fontColor":"#FF0000"},"__featureType":"label","__resolution":0.01866138385868561}},{"type":"Feature","geometry":{"type":"LineString","coordinates":[[12935164.655498167,600651.6669087296],[12935158.450588033,600657.9931138712]]},"properties":{"__style":{"strokeDashstyle":"solid","strokeWidth":4,"strokeColor":"#FF0000","strokeOpacity":0.9,"enableSegmentLength":false,"enableTotalLength":false,"enableArrows":false,"enableAngle":false},"__featureType":"line","__resolution":0.14929107086948487}},{"type":"Feature","geometry":{"type":"Point","coordinates":[12935158.450588033,600657.9931138712]},"properties":{"__style":{"text":"FDC KGU C029M","fontFamily":"Calibri","fontSize":14,"fontWeight":"normal","fontStyle":"normal","fontColor":"#FF0000"},"__featureType":"label","__resolution":0.14929107086948487}},{"type":"Feature","geometry":{"type":"LineString","coordinates":[[12936056.100474404,600886.3338067661],[12936060.653852066,600892.6040317426],[12935663.371651094,601234.8911390345],[12935659.49008553,601246.7971013668],[12936230.808359202,601931.5952440146],[12936313.814185493,602025.05145324],[12936460.268726014,602190.0180876898],[12936468.143830003,602190.5406064378]]},"properties":{"__style":{"strokeDashstyle":"solid","strokeWidth":4,"strokeColor":"#FF0000","strokeOpacity":0.9,"enableSegmentLength":false,"enableTotalLength":false,"enableArrows":false,"enableAngle":false},"__featureType":"line","__resolution":0.07464553543474244}},{"type":"Feature","geometry":{"type":"Point","coordinates":[12936056.100474404,600886.3338067661]},"properties":{"__style":{"text":"FDC KGU C046M","fontFamily":"Calibri","fontSize":14,"fontWeight":"normal","fontStyle":"normal","fontColor":"#FF0000"},"__featureType":"label","__resolution":0.14929107086948487}},{"type":"Feature","geometry":{"type":"LineString","coordinates":[[12936468.143830003,602190.5406064378],[12936488.036865197,602213.3074947455],[12936560.443034567,602303.1807194089],[12936608.216186358,602358.2691200037],[12936622.54812005,602375.139015568],[12936640.164466413,602395.1440190644],[12936693.610669784,602456.8012313335],[12936705.703246525,602481.434258027],[12936761.6873981,602546.5251649261],[12936824.240356792,602618.4834588072],[12936835.138604965,602631.17320097],[12936980.100234779,602806.291625961],[12937084.305402245,602929.3074694964],[12937166.266200159,603026.9438309841],[12937253.153603401,603126.9688478971],[12937343.400073966,603234.1598373511],[12937384.30580916,603271.1840229267],[12937472.088958832,603385.5409832126],[12937625.560179682,603566.7803386921],[12937754.062473493,603716.5192873302],[12937769.812676914,603728.2386363934]]},"properties":{"__style":{"strokeDashstyle":"solid","strokeWidth":4,"strokeColor":"#FF0000","strokeOpacity":0.9,"enableSegmentLength":false,"enableTotalLength":false,"enableArrows":false,"enableAngle":false},"__featureType":"line","__resolution":0.14929107086948487}},{"type":"Feature","geometry":{"type":"LineString","coordinates":[[12930500.158631016,595031.0633662854],[12930500.062987152,595030.932736456]]},"properties":{"__style":{"strokeDashstyle":"solid","strokeWidth":4,"strokeColor":"#FF0000","strokeOpacity":0.9,"enableSegmentLength":false,"enableTotalLength":false,"enableArrows":false,"enableAngle":false},"__featureType":"line","__resolution":0.004665345964671402}},{"type":"Feature","geometry":{"type":"Point","coordinates":[12930500.062987152,595030.932736456]},"properties":{"__style":{"text":"JT F14","fontFamily":"Calibri","fontSize":14,"fontWeight":"normal","fontStyle":"normal","fontColor":"#FF0000"},"__featureType":"label","__resolution":0.004665345964671402}},{"type":"Feature","geometry":{"type":"LineString","coordinates":[[12930500.158631016,595031.0633662854],[12930584.321476772,595141.6880497996],[12930624.779347867,595186.7739532022],[12930676.135476246,595273.5120630994],[12930720.922806622,595337.8565169221],[12930737.494106377,595373.0892050914],[12930752.572504532,595416.5329112704],[12930857.374836281,595546.117560785],[12930922.764325323,595630.914889039],[12930998.604189325,595728.5512448315],[12931027.417366002,595765.1275611811],[12931069.368156917,595819.1709294055],[12931126.248054918,595895.1600839086],[12931249.039960707,596044.0032730228],[12931267.850635637,596065.7997784817],[12931333.538706819,596138.0566545046],[12931418.03745293,596230.0199564382],[12931460.436117057,596273.9115312739],[12931518.659634698,596353.0357897227],[12931599.276812967,596446.1934270572],[12931656.903166326,596516.3602303659],[12931771.260126611,596649.8264431673],[12931899.053283276,596801.5061757267],[12931979.371897629,596897.9482075083],[12932055.510325547,596989.0157607386],[12932099.999064663,597041.8647998265],[12932142.09914665,597092.9223460639],[12932213.460278524,597177.1225100342],[12932259.143364435,597229.9715400101],[12932365.140024753,597349.7029879594],[12932460.387709744,597467.0457696628],[12932544.886455856,597565.8764585784],[12932589.972359257,597619.0240798079],[12932695.37185529,597741.7413400626],[12932816.297622696,597883.269275247],[12932866.75800465,597950.1516749965],[12932972.157500684,598077.3476673773],[12933025.902286196,598142.7371552791],[12933149.515292877,598295.3126308467],[12933171.311789226,598321.5878593198],[12933272.829717416,598438.3334767397],[12933319.707113666,598495.9598300953],[12933420.926459717,598613.6011939405],[12933480.045723781,598673.0190401465],[12933578.577830555,598805.8880886644],[12933683.380162304,598939.9514748611],[12933685.171655154,598950.7004319637],[12933709.356808634,598967.7196140428],[12933729.958976414,598930.3968463255],[12933997.60054372,599261.8230213777]]},"properties":{"__style":{"strokeDashstyle":"solid","strokeWidth":4,"strokeColor":"#FF0000","strokeOpacity":0.9,"enableSegmentLength":false,"enableTotalLength":false,"enableArrows":false,"enableAngle":false},"__featureType":"line","__resolution":0.07464553543474244}},{"type":"Feature","geometry":{"type":"LineString","coordinates":[[12930680.912790515,595535.2193126117],[12930695.244733319,595534.6221483282],[12930695.095442249,595522.380275961],[12930676.73264053,595489.8348270674],[12930674.64256554,595435.4928727148],[12930683.60002979,595365.9232291336],[12930717.787685018,595342.3352490483],[12930625.824385362,595199.6129852971],[12930598.653410463,595176.6221558271],[12930583.276439276,595143.9274158627],[12930581.169852318,595138.5978458148],[12930500.22160863,595031.0027166456]]},"properties":{"__style":{"strokeDashstyle":"solid","strokeWidth":4,"strokeColor":"#FF0000","strokeOpacity":0.9,"enableSegmentLength":false,"enableTotalLength":false,"enableArrows":false,"enableAngle":false},"__featureType":"line","__resolution":0.14929107086948487}},{"type":"Feature","geometry":{"type":"LineString","coordinates":[[12930500.22160863,595031.0027166456],[12930500.062987152,595030.932736456]]},"properties":{"__style":{"strokeDashstyle":"solid","strokeWidth":4,"strokeColor":"#FF0000","strokeOpacity":0.9,"enableSegmentLength":false,"enableTotalLength":false,"enableArrows":false,"enableAngle":false},"__featureType":"line","__resolution":0.004665345964671402}},{"type":"Feature","geometry":{"type":"LineString","coordinates":[[12930680.912790515,595535.2193126117],[12930673.48555974,595527.904050139]]},"properties":{"__style":{"strokeDashstyle":"solid","strokeWidth":4,"strokeColor":"#FF0000","strokeOpacity":0.9,"enableSegmentLength":false,"enableTotalLength":false,"enableArrows":false,"enableAngle":false},"__featureType":"line","__resolution":0.07464553543474244}},{"type":"Feature","geometry":{"type":"Point","coordinates":[12930673.48555974,595527.904050139]},"properties":{"__style":{"text":"TM NODE KGU","fontFamily":"Calibri","fontSize":14,"fontWeight":"normal","fontStyle":"normal","fontColor":"#FF0000"},"__featureType":"label","__resolution":0.07464553543474244}},{"type":"Feature","geometry":{"type":"LineString","coordinates":[[12935164.655498167,600651.6669087296],[12935165.625890128,600650.6405326173],[12935164.226286339,600649.8940778325],[12934925.257935334,600379.1173980429],[12934894.653265806,600338.3609356956],[12934570.542350948,599948.2633675135],[12934549.492309954,599920.1966370781],[12934497.688308366,599859.5844714171],[12934448.123672834,599797.4793859354],[12934411.995233685,599760.7537825014],[12934367.058621353,599705.6653773506],[12934250.462295003,599565.9289350169],[12934186.56571667,599490.6862352985],[12934170.59157209,599472.3234335816],[12934122.33323343,599416.5632186119],[12934106.284443311,599396.9314427925],[12934027.085530216,599300.4147654754],[12934011.63390438,599280.1858253727],[12933997.60054372,599261.8230213777]]},"properties":{"__style":{"strokeDashstyle":"solid","strokeWidth":4,"strokeColor":"#FF0000","strokeOpacity":0.9,"enableSegmentLength":false,"enableTotalLength":false,"enableArrows":false,"enableAngle":false},"__featureType":"line","__resolution":0.01866138385868561}}]}